{"type": "FeatureCollection", "features": [{"type": "Feature", "properties": {"OBJECTID": 151, "FRAARCID": 300211, "RROWNER1": "BNSF", "TRKRGHTS1": null}, "geometry": {"type": "LineString", "coordinates": [[-110.217933545752, 47.1571414027058], [-110.217862635439, 47.156976899959], [-110.217385280578, 47.1558694797449], [-110.216524549907, 47.1538726655136], [-110.216475200957, 47.153758181649], [-110.216445762267, 47.1536898865767], [-110.216357094057, 47.1534841846875], [-110.215917239368, 47.1524637626], [-110.215752095781, 47.1520806498698], [-110.215333907558, 47.1511104925768], [-110.215130097787, 47.1506376736506], [-110.215102577, 47.1505738275706], [-110.214899460727, 47.1501026167154], [-110.214873014325, 47.1500412656294]]}}, {"type": "Feature", "properties": {"OBJECTID": 152, "FRAARCID": 300212, "RROWNER1": "BNSF", "TRKRGHTS1": null}, "geometry": {"type": "LineString", "coordinates": [[-110.214873014325, 47.1500412656294], [-110.214618438062, 47.149450672504], [-110.213716175581, 47.1473575122827], [-110.213528027038, 47.1469210244914], [-110.212416179515, 47.1443416465743], [-110.210048648923, 47.1388492031782], [-110.209626410197, 47.137869646929], [-110.208957999845, 47.136319001154], [-110.208811488215, 47.1360291378332], [-110.208587000124, 47.1355850008593], [-110.208501569442, 47.1354589370836], [-110.208341000077, 47.1352219999058], [-110.208207338847, 47.1350586350102], [-110.208145806945, 47.1349834300352], [-110.208116776989, 47.134947948943], [-110.208034999755, 47.1348479997019], [-110.207585000392, 47.1344009996057], [-110.207371508578, 47.1342289850001], [-110.207294445703, 47.134166893873], [-110.207231404631, 47.1341160990434], [-110.207095999772, 47.1340069999038], [-110.206507000491, 47.1336200000583], [-110.206304763669, 47.1335111486255], [-110.205827000075, 47.1332539997593], [-110.20526527185, 47.1329893701161], [-110.204335278376, 47.1325512499768], [-110.199486668342, 47.1302670733433], [-110.193178157631, 47.1272951384808], [-110.190982999369, 47.1262609994876], [-110.190968037029, 47.1262545519354], [-110.190085000292, 47.1258739995069], [-110.189710676804, 47.1257469146115], [-110.189113000696, 47.1255439998815], [-110.188697776016, 47.1254377906819], [-110.188249000158, 47.1253229998676], [-110.187307999626, 47.1251529997962], [-110.187226303241, 47.1251441561544], [-110.18653081048, 47.1250688711481], [-110.186337999681, 47.1250480000201], [-110.185870016944, 47.1250295602951], [-110.185398999697, 47.1250110001544], [-110.184296000581, 47.1250419991186], [-110.183528135049, 47.1250904690009], [-110.179650412496, 47.1253352405901], [-110.176865998933, 47.1255110001119], [-110.176474489776, 47.125511442016], [-110.176139978724, 47.125511819743], [-110.175981001173, 47.1255120000497], [-110.175765474675, 47.1254978138895], [-110.175115000985, 47.1254549999006], [-110.174924397346, 47.1254255340915], [-110.174860667267, 47.1254156819985], [-110.174773116561, 47.1254021461402], [-110.173775999172, 47.125247999939], [-110.172942181129, 47.1250259284588], [-110.172674120254, 47.1249545342818], [-110.172581999819, 47.1249300000943], [-110.172027470692, 47.1247293535337], [-110.171926999518, 47.1246930001153], [-110.171819837691, 47.1246465835662], [-110.171396000862, 47.1244630006169], [-110.170495858404, 47.1239766333868], [-110.170403999378, 47.1239269993245], [-110.170318657629, 47.1238700365956], [-110.170130271931, 47.1237442977293], [-110.169985998903, 47.1236479997042], [-110.169517000172, 47.1232859997686], [-110.169433932957, 47.123210970685], [-110.169431337724, 47.1232086272087], [-110.169427849566, 47.1232054762904], [-110.169114000664, 47.1229219992305], [-110.168726999253, 47.122512999542], [-110.168505616638, 47.122260960697], [-110.167792100977, 47.12144863819], [-110.166171268015, 47.119603354582], [-110.165511085333, 47.1188517496342], [-110.163767069989, 47.116866225175], [-110.163133288793, 47.1161446791284], [-110.160761792139, 47.1134447771139], [-110.158164512921, 47.1104878325646], [-110.157327301941, 47.1095346851696], [-110.157289504427, 47.1094916510722], [-110.156827542199, 47.1089657184856], [-110.156137266853, 47.1081798565077], [-110.150664866686, 47.1019496435842], [-110.149965999853, 47.1011539993804], [-110.149844782985, 47.1009894640254], [-110.149633000665, 47.1007020002969], [-110.149381999697, 47.1002699995076], [-110.14931988928, 47.1001251749781], [-110.149305943833, 47.1000926572049], [-110.14929081261, 47.100057374203], [-110.149175715066, 47.0997889990582], [-110.149173999284, 47.0997850004309], [-110.14913961986, 47.0996625813838], [-110.14906389278, 47.0993929494327], [-110.149041999938, 47.099314999109], [-110.148969999968, 47.0988170002983], [-110.148967865571, 47.0984804583797], [-110.148967000493, 47.0983440000939], [-110.149021263228, 47.0979089103118], [-110.149021999846, 47.097902999913], [-110.149145999695, 47.0974159997471], [-110.149249394886, 47.097157790283], [-110.149329476999, 47.0969577991345], [-110.149333000191, 47.0969489997293], [-110.149528000185, 47.0965850000428], [-110.149740999722, 47.09626300001], [-110.14985753457, 47.0961182758829], [-110.150079999656, 47.0958419998427], [-110.150084144482, 47.0958379128558], [-110.150154724216, 47.0957682866468], [-110.150672000208, 47.0952579996865], [-110.15133205982, 47.0947142455839], [-110.15206007968, 47.0941145071625], [-110.152227000134, 47.0939769992402], [-110.152740999072, 47.0935120001075], [-110.152798463402, 47.0934468145776], [-110.15323200024, 47.0929549990292], [-110.153300344066, 47.0928525820402], [-110.153579000569, 47.0924349999905], [-110.153751618139, 47.0920926259524], [-110.153760000319, 47.0920759998002], [-110.153921999803, 47.0916420000445], [-110.154000281691, 47.0913494719427], [-110.154035999605, 47.0912160001875], [-110.154127999667, 47.0907309999852], [-110.154160069523, 47.0904919816593], [-110.154191999241, 47.0902540001696], [-110.154229999774, 47.0897520010274], [-110.154231011277, 47.0896721527988], [-110.154236999447, 47.0891989998022], [-110.154210000581, 47.0886939998371], [-110.154201257278, 47.0886210467925], [-110.154123000542, 47.0879680007861], [-110.154058409877, 47.0876418677616], [-110.153981000252, 47.087250999586], [-110.153820240444, 47.0866710204338], [-110.153799999604, 47.0865979997829], [-110.153536000013, 47.0858679994043], [-110.153489257974, 47.0857637882289], [-110.153231000415, 47.0851879993526], [-110.153060327697, 47.0848722563582], [-110.152851000473, 47.0844849994044], [-110.152396000188, 47.0837759993043], [-110.15222154197, 47.0835411392393], [-110.151930999858, 47.0831499993534], [-110.151611078344, 47.0827730315169], [-110.151358999397, 47.0824760002821], [-110.150768000467, 47.0818609995115], [-110.150520518199, 47.0816339297321], [-110.150088999876, 47.0812380001659], [-110.149410687395, 47.0806871054134], [-110.149364999978, 47.0806500006854], [-110.148584000179, 47.0800859996429], [-110.148342625557, 47.0799325602489], [-110.147637000698, 47.0794840006829], [-110.147260314641, 47.079274513805], [-110.14667500025, 47.0789489998619], [-110.146330960767, 47.0787809016055], [-110.145754000708, 47.0784990005232], [-110.145618144894, 47.0784416398603], [-110.14514428448, 47.0782415637454], [-110.144941767384, 47.0781560566783], [-110.144852542219, 47.0781183837042], [-110.14456938336, 47.077998828636], [-110.144538999642, 47.0779860007522], [-110.143271999596, 47.0775350010058], [-110.143061204524, 47.0774726809854], [-110.142869669333, 47.0774160557783], [-110.142705915439, 47.0773676440263], [-110.142033999861, 47.077168999689], [-110.140824865692, 47.0768773690943], [-110.140795446765, 47.0768702732028], [-110.140756998871, 47.0768610000293], [-110.140473619026, 47.076807477061], [-110.139653547902, 47.0766525887305], [-110.139568376833, 47.0766365028461], [-110.139480999502, 47.0766199997295], [-110.138062998945, 47.0764279989034], [-110.138037491282, 47.0764258570873], [-110.137288785917, 47.0763629503025], [-110.136729999674, 47.0763160003452], [-110.136713073618, 47.0763153561472], [-110.135415999772, 47.0762660006506], [-110.134754126461, 47.0762733156378], [-110.134720592351, 47.0762736875966], [-110.134593111531, 47.0762750965131]]}}, {"type": "Feature", "properties": {"OBJECTID": 153, "FRAARCID": 300213, "RROWNER1": "BNSF", "TRKRGHTS1": null}, "geometry": {"type": "LineString", "coordinates": [[-110.134593111531, 47.0762750965131], [-110.134059000212, 47.0762809995239], [-110.132863948932, 47.0763549458589], [-110.13285035832, 47.0763557858239], [-110.132847560966, 47.076355958344], [-110.132556000165, 47.0763740007641], [-110.13070053803, 47.0765488159095], [-110.124459268015, 47.0771368502507], [-110.121168762485, 47.0774468707976], [-110.114554999749, 47.0780699995074], [-110.114307515685, 47.0780802977696], [-110.113112999801, 47.0781299996732], [-110.112950050798, 47.0781298809931], [-110.111748000743, 47.0781290000687], [-110.110982493289, 47.0780981469034], [-110.110433000118, 47.0780760001999], [-110.10907400001, 47.0779679998656], [-110.108427229175, 47.0779006162379], [-110.105808565562, 47.0776277926711], [-110.103044189819, 47.0773397868313], [-110.100144410116, 47.0770376745681], [-110.094270447746, 47.07642569925], [-110.091191570924, 47.0761049269113], [-110.089263000299, 47.075903999603], [-110.088122466874, 47.0757691401693], [-110.088079000093, 47.0757639999918], [-110.086880000717, 47.0755789997666], [-110.086495356485, 47.0755029221255], [-110.08543400057, 47.0752929999105], [-110.084457062936, 47.0750514370151], [-110.084062999868, 47.0749540004397], [-110.08136074173, 47.0742014272805], [-110.069395000685, 47.0708690002294], [-110.069210931392, 47.0708313490242], [-110.068844595724, 47.0707564185313], [-110.068471000771, 47.0706800005534], [-110.067881875726, 47.0705993583258], [-110.067418999911, 47.0705360004669], [-110.066917130925, 47.0704999844766], [-110.066412691859, 47.0704637867452], [-110.066346000034, 47.070459000312], [-110.065580187152, 47.0704513578034], [-110.065343999403, 47.0704490003791], [-110.064094999798, 47.0705200008411], [-110.063176043025, 47.070637488765], [-110.063140264026, 47.070642062874], [-110.06306122845, 47.070652168007], [-110.06286700011, 47.0706770000967], [-110.061781132764, 47.0708499060339], [-110.056993543491, 47.0716122503046], [-110.05484547761, 47.0719542940559], [-110.053868388161, 47.0721098788362], [-110.047598138494, 47.073108312553], [-110.046275000031, 47.0733189995692], [-110.044905000951, 47.0735959999659], [-110.044557723042, 47.0736917431034], [-110.04407800112, 47.0738239996803], [-110.043356000872, 47.074067000363], [-110.043263585789, 47.0741039659025], [-110.042640999398, 47.0743530000693], [-110.041967000627, 47.0746679990647], [-110.041784206043, 47.0747695730984], [-110.04103299887, 47.0751870005965], [-110.039456027948, 47.0761479837132], [-110.037916089176, 47.0770863998437], [-110.036493999487, 47.0779530002437], [-110.035702143547, 47.0783539803642], [-110.035475000934, 47.0784690003506], [-110.0343629998, 47.0789090003736], [-110.03415163879, 47.0789752314251], [-110.033562000808, 47.0791600002441], [-110.032654110381, 47.0793864755579], [-110.03264800004, 47.0793879993989], [-110.031694999813, 47.0795669999459], [-110.030921634795, 47.079663147724], [-110.030770000074, 47.0796819995734], [-110.029954000114, 47.0797410001849], [-110.029362126224, 47.0797505077632], [-110.029059764978, 47.0797553649349], [-110.028957999331, 47.079757000101], [-110.028549070044, 47.0797410797104], [-110.028058999531, 47.0797220003165], [-110.027840026197, 47.0797009450116], [-110.027471393537, 47.0796654998469], [-110.027284126241, 47.0796474934103], [-110.02712299992, 47.0796319999786], [-110.026357000189, 47.0795180004335], [-110.025327999794, 47.0793169991281], [-110.02523829942, 47.0792980480477], [-110.02452267721, 47.0791468612634]]}}, {"type": "Feature", "properties": {"OBJECTID": 154, "FRAARCID": 300214, "RROWNER1": "BNSF", "TRKRGHTS1": null}, "geometry": {"type": "LineString", "coordinates": [[-110.02452267721, 47.0791468612634], [-110.018851953283, 47.0779488299088]]}}, {"type": "Feature", "properties": {"OBJECTID": 221, "FRAARCID": 300323, "RROWNER1": "BNSF", "TRKRGHTS1": null}, "geometry": {"type": "LineString", "coordinates": [[-109.766220432068, 46.6834689397468], [-109.765992398326, 46.683271821823], [-109.764639999937, 46.6823000008901], [-109.762640840595, 46.6809023570208], [-109.761324760195, 46.6799912609885], [-109.759102344351, 46.6784398530365], [-109.755652126449, 46.6760508751886], [-109.752720629928, 46.6740092960568], [-109.752011550148, 46.6735238860303], [-109.751464274019, 46.6731384140453], [-109.751117456946, 46.6728923811647], [-109.75090748024, 46.6727434228349], [-109.749989009456, 46.6721200040201], [-109.748337663419, 46.6709731041673], [-109.746719998814, 46.669860000141], [-109.746282933394, 46.6696009161205]]}}, {"type": "Feature", "properties": {"OBJECTID": 222, "FRAARCID": 300324, "RROWNER1": "BNSF", "TRKRGHTS1": null}, "geometry": {"type": "LineString", "coordinates": [[-109.512105404246, 46.4580596506927], [-109.513926998996, 46.4585849999109], [-109.514245980872, 46.4586919788529], [-109.515069000268, 46.4589679994315], [-109.515224786104, 46.4590256814032], [-109.51632482617, 46.4594329826291], [-109.516757000263, 46.459592999511], [-109.521043564068, 46.4611934135007], [-109.522260794753, 46.4616478724039], [-109.52425670399, 46.4623930573177], [-109.52823652816, 46.4638789469712], [-109.529182927566, 46.4642322895467], [-109.534482229565, 46.4662108157282], [-109.536537019776, 46.4669779837146], [-109.540633654577, 46.4685074841481], [-109.541459594395, 46.4688158539336], [-109.542694839894, 46.4692770401553], [-109.546772099831, 46.4707993078291], [-109.546901849796, 46.4708477519668], [-109.546921089913, 46.4708549337303], [-109.547772999128, 46.4711729998944], [-109.547824073741, 46.4711929636894], [-109.547849531098, 46.4712029146498], [-109.548421327641, 46.4714264210067], [-109.549726720784, 46.4719366778904], [-109.550252000765, 46.4721419995814], [-109.551015700809, 46.4724850767182], [-109.551484011431, 46.4726954558229], [-109.552670133458, 46.4732282975103], [-109.552782999587, 46.473278999463], [-109.552878477925, 46.4733276505015], [-109.5531867959, 46.473484757195], [-109.555869999874, 46.4748520004575], [-109.556208428479, 46.4750270044373], [-109.556780466669, 46.4753228092081], [-109.556989428278, 46.47543086448], [-109.558160244809, 46.4760363024903], [-109.561580044857, 46.4778047079448], [-109.562175397024, 46.4781125691404], [-109.562818772227, 46.4784452630974], [-109.563141086852, 46.4786119359353], [-109.563914710585, 46.4790119823149], [-109.5647122852, 46.479424413706], [-109.564720246968, 46.4794285310635], [-109.564720615278, 46.4794287222089], [-109.564900999682, 46.4795219998202], [-109.564931517249, 46.479538923884], [-109.565084949499, 46.4796240111604], [-109.56589075897, 46.4800708789389], [-109.566069264099, 46.4801698699371], [-109.566100267654, 46.4801870628838], [-109.566106275587, 46.4801903951996], [-109.566349000376, 46.4803249996803], [-109.566441294187, 46.4803806480115], [-109.566460611559, 46.4803922946821], [-109.566604195579, 46.4804788676937], [-109.566658066648, 46.4805113487754], [-109.566898153984, 46.4806561076809], [-109.567708999411, 46.4811449997098], [-109.56781547762, 46.4812144778789], [-109.567861737264, 46.4812446629981], [-109.56888761242, 46.4819140566106], [-109.569177770952, 46.4821033866851], [-109.569263000411, 46.482158999795], [-109.569992618373, 46.4826478288348], [-109.570772760281, 46.4831705080157], [-109.5719038587, 46.4839283196421], [-109.574352340076, 46.4855687516875], [-109.574954439488, 46.4859721444413], [-109.575384816053, 46.4862604879357], [-109.575789097457, 46.486531347646], [-109.578883124365, 46.4886042815639], [-109.579177328909, 46.4888013924222], [-109.584626799579, 46.4924524231148], [-109.585575487892, 46.4930880240512], [-109.585601042267, 46.4931051455057], [-109.586879253288, 46.4939615193331], [-109.587451236681, 46.494344736236], [-109.587834364556, 46.4946014241575], [-109.589183890133, 46.4955055781981], [-109.590369534255, 46.4962999349694], [-109.593905868254, 46.4986692028004], [-109.596413645625, 46.5003493617697], [-109.597725096109, 46.5012280062469], [-109.598935677464, 46.5020390697285], [-109.600442295926, 46.5030484726376], [-109.602521345141, 46.5044413908554], [-109.602765814459, 46.5046051806424], [-109.603027178393, 46.5047802886297], [-109.604502774435, 46.5057689080186], [-109.605193612126, 46.5062317540038], [-109.605324832633, 46.5063196690013], [-109.605390999841, 46.5063640008196], [-109.605495648182, 46.5064422097479], [-109.605848019539, 46.5067055619196], [-109.606246000159, 46.5070030004457], [-109.606447697093, 46.5071720446779], [-109.606951616035, 46.5075943818457], [-109.606971742789, 46.5076112495687], [-109.607049000598, 46.5076760000112], [-109.607616570568, 46.5082044575105], [-109.607701999453, 46.5082839998619], [-109.607884789546, 46.5084757594269], [-109.607937323922, 46.5085308719843], [-109.607969356048, 46.5085644757724], [-109.608157891765, 46.5087622629993], [-109.608320075403, 46.5089324047324], [-109.608455999489, 46.5090750007706], [-109.608832725071, 46.5095241898799], [-109.608874281136, 46.5095737389744], [-109.609371000979, 46.510166000606], [-109.609435413778, 46.5102450696041], [-109.609661809891, 46.510522978974], [-109.609956929818, 46.5108852489493], [-109.611157719536, 46.5123592597325], [-109.611386118892, 46.5126396299184], [-109.611814984491, 46.5131660775799], [-109.612598032449, 46.5141272961163], [-109.612900814107, 46.5144989726254], [-109.612920703706, 46.5145233857397], [-109.612940603186, 46.5145478130616], [-109.612950559214, 46.514560034755], [-109.612998858932, 46.5146193250744], [-109.613349879223, 46.5150502151213], [-109.61437328491, 46.5163064821466], [-109.616730245925, 46.5191997337242], [-109.61679378107, 46.5192777257604], [-109.617035762055, 46.5195747660204], [-109.617741947463, 46.5204416347433], [-109.617771765242, 46.5204782371164], [-109.618196000923, 46.5209990000168], [-109.618441587745, 46.521273298984], [-109.618751999693, 46.521619999959], [-109.618816238219, 46.5216847528738], [-109.618840057049, 46.5217087640773], [-109.619171743798, 46.5220431118449], [-109.619293379281, 46.5221657246928], [-109.619375000207, 46.5222480002755], [-109.619460720147, 46.522326034912], [-109.619741437385, 46.5225815807499], [-109.619962589133, 46.5227829019474], [-109.620033000882, 46.522847000145], [-109.620183837899, 46.5229716138166], [-109.620384755994, 46.5231376031989], [-109.620623374585, 46.5233347372217], [-109.620728999394, 46.523421999663], [-109.620764873615, 46.5234485207914], [-109.620846208878, 46.5235086488168], [-109.620956660335, 46.5235903011842], [-109.620990466634, 46.5236152936919], [-109.621565648029, 46.5240405069833], [-109.621650288193, 46.5241030788808], [-109.621684000169, 46.5241280000728], [-109.622404428366, 46.52460214397], [-109.622856999606, 46.5249000000312], [-109.623391297774, 46.5252420491192], [-109.624292811061, 46.5258191846638], [-109.63259686809, 46.5311353127471], [-109.635696590318, 46.5331197067974], [-109.638154384528, 46.5346931494509], [-109.639379924629, 46.5354777211169], [-109.64039256311, 46.5361259961761], [-109.641658184242, 46.5369362274659], [-109.642748698573, 46.5376343571351], [-109.643401479137, 46.5380522581355], [-109.645482689699, 46.5393846174623], [-109.651241798867, 46.5430715101395], [-109.652167982586, 46.543664437873], [-109.652863936183, 46.5441099768152], [-109.65433446393, 46.5450513859174], [-109.655691368268, 46.5459200556216], [-109.658560930442, 46.5477571047703], [-109.65925218046, 46.548199632892], [-109.660782000609, 46.5491789997588], [-109.661033411209, 46.5493516059818], [-109.661107596781, 46.5494025384556], [-109.661252788785, 46.5495022199682], [-109.661637000029, 46.5497659997816], [-109.661800000235, 46.5498893624455], [-109.661808359059, 46.549895689869], [-109.662350239008, 46.5503057988683], [-109.66237360329, 46.5503234805494], [-109.662405999234, 46.550348000505], [-109.663078999977, 46.5509109994858], [-109.663092011176, 46.5509229177], [-109.663097977786, 46.550928382582], [-109.663109244456, 46.5509387013603], [-109.663638000019, 46.5514229997014], [-109.66397640437, 46.5517679526893], [-109.664412999971, 46.5522130007177], [-109.664535130425, 46.5523567483513], [-109.664785596896, 46.5526515474933], [-109.665030742646, 46.552940084684], [-109.66509844238, 46.5530197684953], [-109.665186999199, 46.5531239999256], [-109.665418535472, 46.5534412773487], [-109.665513287074, 46.5535711155626], [-109.665581483577, 46.5536645668354], [-109.665826998534, 46.5540009998456], [-109.665940031749, 46.5541827574223], [-109.666321509419, 46.5547961856761], [-109.666349999489, 46.554841999427], [-109.66661661138, 46.5553531014432], [-109.666808000146, 46.5557200007146], [-109.666913052729, 46.555968487003], [-109.666918928609, 46.5559823845248], [-109.666937184172, 46.5560255645432], [-109.667156683021, 46.5565447549058], [-109.667235000842, 46.5567299996062], [-109.667382205971, 46.5571857841093], [-109.667526000197, 46.5576309995811], [-109.667583256118, 46.5578708676033], [-109.667730973287, 46.5584896966684], [-109.667731999163, 46.5584940001418], [-109.667803222988, 46.5589130377227], [-109.667834999993, 46.5591000001556], [-109.667856783241, 46.559312388935], [-109.667918999659, 46.559918999957], [-109.667920755865, 46.5599696692664], [-109.667939765115, 46.5605182112955], [-109.667940000474, 46.5605250001151], [-109.667934995061, 46.5607520269954], [-109.667934915111, 46.560755631089], [-109.66792600023, 46.5611600002269], [-109.66790691103, 46.561388795284], [-109.667856999735, 46.5619869990553], [-109.667819935246, 46.5623468091741], [-109.667657675251, 46.5639219661595], [-109.667648802591, 46.5640081115605], [-109.667504303188, 46.5654108565556], [-109.667461062782, 46.565830629405], [-109.667361056934, 46.5668014430415], [-109.667060000042, 46.5697239998069], [-109.66705610315, 46.5698458367998], [-109.667030000803, 46.570662000372], [-109.66703076976, 46.5706762201994], [-109.667032778393, 46.5707133482216], [-109.667042265501, 46.57088860689], [-109.667063776559, 46.5712860574493], [-109.667071999737, 46.5714380000391], [-109.667141987481, 46.5719930202073], [-109.667157999951, 46.572120000524], [-109.667248533063, 46.5725715682887], [-109.667322999807, 46.5729429992719], [-109.667414158147, 46.5732681145412], [-109.667526000197, 46.5736669994552], [-109.667622866432, 46.5739375354021], [-109.667806000579, 46.574449000337], [-109.667835465321, 46.5745155934313], [-109.668030397042, 46.5749561484008], [-109.668129000619, 46.5751789992261], [-109.668299985951, 46.575504838386], [-109.668500001239, 46.5758860007751], [-109.668567236544, 46.5759952974314], [-109.66893593029, 46.5765946294493], [-109.668946000404, 46.5766109996655], [-109.669326192585, 46.5771488354904], [-109.6694379996, 46.5773070006698], [-109.669841000905, 46.577818000359], [-109.669943197743, 46.5779347416929], [-109.670368000261, 46.578419999448], [-109.670404301182, 46.5784573784175], [-109.670730403105, 46.5787931618758], [-109.670907000211, 46.5789750006463], [-109.670920625858, 46.5789877215697], [-109.671035987506, 46.579095431896], [-109.671302676653, 46.5793444304349], [-109.671510000634, 46.5795380008414], [-109.671687991028, 46.579690216689], [-109.671775534547, 46.5797650827573], [-109.672529513023, 46.5804098775412], [-109.673234847726, 46.5810130734676], [-109.676892550408, 46.5841411097745], [-109.677954876503, 46.5850496003373], [-109.678664215896, 46.5856562223712], [-109.679049750358, 46.5859859263494], [-109.679679847563, 46.5865247792224], [-109.67991626079, 46.5867269597991], [-109.680099924045, 46.5868840252832], [-109.680236206558, 46.5870005742336], [-109.680809561678, 46.5874909027509], [-109.681115161351, 46.5877522463731], [-109.682248750798, 46.5887216835648], [-109.682788287941, 46.5891830912204], [-109.682970304584, 46.5893387494546], [-109.684453499475, 46.5906071632468], [-109.685061364274, 46.5911270054265], [-109.685992112334, 46.5919229712295], [-109.686184944693, 46.592087881266], [-109.68657661914, 46.5924228376844], [-109.687723281769, 46.5934034532964], [-109.688644379227, 46.5941911664856], [-109.688703860275, 46.5942420346457], [-109.689663162184, 46.5950624211145], [-109.690170913339, 46.5954966456713], [-109.690973002886, 46.5961825841735], [-109.691935435424, 46.597005648547], [-109.692792849515, 46.5977389021698], [-109.695647537384, 46.600180203373], [-109.696301371672, 46.6007393584582], [-109.697255526234, 46.6015553415685], [-109.699029000031, 46.6030719991745], [-109.699077655482, 46.6031158989952], [-109.699201115443, 46.6032272904103], [-109.699371301273, 46.6033808395113], [-109.699598485209, 46.603585813521], [-109.69965300037, 46.6036350003049], [-109.700037351751, 46.6040168801962], [-109.700107280206, 46.6040863605296], [-109.700130702879, 46.6041096310952], [-109.700274999263, 46.6042529992832], [-109.700584233519, 46.6045949501789], [-109.700860999967, 46.6049010002695], [-109.700949541515, 46.6050103853166], [-109.70100426239, 46.605077986965], [-109.701080537443, 46.6051722190883], [-109.701087592811, 46.6051809352706], [-109.701104449697, 46.6052017601704], [-109.701131833042, 46.6052355911266], [-109.70114630041, 46.6052534641227], [-109.701374999803, 46.6055359992414], [-109.701428913991, 46.605612655166], [-109.701790403248, 46.6061266200698], [-109.701820979205, 46.6061700940495], [-109.701835662169, 46.6061909710269], [-109.702218999352, 46.6067360005911], [-109.702227770502, 46.6067490661552], [-109.702964716022, 46.6078468332087], [-109.7037359161, 46.6089956322716], [-109.704924752835, 46.6107665526423], [-109.705924326218, 46.6122555385291], [-109.706726518174, 46.6134504995208], [-109.70723617735, 46.6142096988423], [-109.709113622158, 46.6170063807414], [-109.709688883503, 46.6178633029239], [-109.709735000315, 46.6179319997789], [-109.710334985093, 46.6188333836379], [-109.710588999909, 46.6192149996635], [-109.710737823802, 46.6194548569203], [-109.711056707762, 46.6199687965998], [-109.711170999517, 46.6201529997549], [-109.711338423926, 46.6204511736976], [-109.713333115947, 46.6240036067233], [-109.714407629486, 46.6259172571136], [-109.71555539345, 46.6279613568664], [-109.718022107931, 46.6323544400545], [-109.718240445257, 46.632743286463], [-109.718567853331, 46.6333263781219], [-109.719923880015, 46.6357413887279], [-109.722793444884, 46.6408519215031], [-109.723117089914, 46.6414283148593], [-109.723460159216, 46.6420393025542], [-109.72373443733, 46.6425277767836], [-109.723958957761, 46.6429276340014], [-109.724240471805, 46.6434289934919], [-109.724553708954, 46.6439868516306], [-109.724813265478, 46.6444491077757], [-109.725107468225, 46.6449730666458], [-109.725426801342, 46.6455417788568], [-109.725779388294, 46.646169716832], [-109.726262998124, 46.6470310011012], [-109.726300763299, 46.6470960490216], [-109.72709812681, 46.6484694761586], [-109.727188998587, 46.6486260012849], [-109.72777607727, 46.6495208369873], [-109.727936818213, 46.6497658440687], [-109.727950212992, 46.6497862608643], [-109.727993998676, 46.6498530012673], [-109.728265721982, 46.650253002286], [-109.728444900846, 46.6505167693434], [-109.728878108002, 46.6511544911139], [-109.729162866761, 46.6515736789268], [-109.729465461569, 46.6520191269329], [-109.729742054642, 46.6524262962154], [-109.73016927812, 46.6530552080686], [-109.731223980213, 46.6546078250507], [-109.732783584006, 46.6569037000477], [-109.733087843392, 46.6573516000183], [-109.734469640946, 46.6593857304001], [-109.735187338264, 46.6604422453244], [-109.735356999478, 46.6606919995294], [-109.735431886634, 46.6607940325967], [-109.735626247027, 46.6610588456588], [-109.735902692776, 46.6614354962997], [-109.73598599984, 46.6615490001639], [-109.736446496018, 46.6620933454887], [-109.736665300468, 46.6623519895477], [-109.736677999053, 46.6623669991116], [-109.736682032489, 46.6623711956976], [-109.737006594699, 46.6627087580969], [-109.737376998837, 46.663094000531], [-109.737391923447, 46.6631078453167], [-109.737538764758, 46.6632440556994], [-109.737594862751, 46.6632960913892], [-109.737887921045, 46.6635679375209], [-109.738122999375, 46.6637859993581], [-109.738327607749, 46.6639558814667], [-109.738695791251, 46.6642615695252], [-109.738758291537, 46.6643134636763], [-109.738769686666, 46.6643229243032], [-109.738830001351, 46.6643729991408], [-109.739285545116, 46.6647147990792], [-109.739631001242, 46.664974000225], [-109.739861723641, 46.6651344853133], [-109.742418327143, 46.6669127940348], [-109.744629194245, 46.6684506161535], [-109.744922299251, 46.6686544931526], [-109.745018850178, 46.6687216534889], [-109.745226103192, 46.6688658134677], [-109.745880931915, 46.669321295077], [-109.746282933394, 46.6696009161205]]}}, {"type": "Feature", "properties": {"OBJECTID": 1091, "FRAARCID": 301405, "RROWNER1": "BNSF", "TRKRGHTS1": null}, "geometry": {"type": "LineString", "coordinates": [[-109.881192947741, 47.0477826712964], [-109.880388434539, 47.0473926039465], [-109.88038100098, 47.0473889992547], [-109.879243732034, 47.0467649731741], [-109.87906700018, 47.0466680002904], [-109.877931479355, 47.0459615472394], [-109.877711999371, 47.0458250003239], [-109.877113796851, 47.045404599319], [-109.877019792648, 47.0453385365099], [-109.876521000391, 47.044988000635], [-109.875785731128, 47.0444161234745], [-109.875728999823, 47.0443720004003], [-109.875087866815, 47.0438274991947], [-109.874965999567, 47.0437239991464], [-109.874873041003, 47.0436378631185], [-109.874804893907, 47.0435747186879], [-109.874223612951, 47.0430361001211], [-109.874203000209, 47.0430170002414], [-109.873586000441, 47.0423920004854], [-109.873183832773, 47.0419483932872], [-109.872993999889, 47.0417390006811], [-109.872781195286, 47.041480383609], [-109.872692507313, 47.0413726041893], [-109.872426612277, 47.0410494721524], [-109.872341913722, 47.0409465403271], [-109.872338999587, 47.0409429994785], [-109.872324455863, 47.0409232634065], [-109.871960032708, 47.0404287346474], [-109.871785850273, 47.0401923685669], [-109.871785684085, 47.040192141445], [-109.871776000246, 47.0401789995921], [-109.871704965067, 47.0400718021848], [-109.87133600003, 47.0395150003084], [-109.87127709031, 47.0394152336446], [-109.871260600835, 47.0393873082507], [-109.870839999737, 47.0386750003729], [-109.870692555657, 47.0383893492136], [-109.870656586214, 47.0383196613927], [-109.87040900064, 47.0378400000339], [-109.870119712576, 47.0371915061894], [-109.870078000204, 47.0370980000699], [-109.870063573261, 47.0370598940079], [-109.870026652503, 47.0369623800293], [-109.869762998763, 47.0362660000987], [-109.8697624993, 47.036264402169], [-109.869645542243, 47.0358911710168], [-109.869558999447, 47.0356150002018], [-109.869544218568, 47.0355448942698], [-109.869475583687, 47.0352193459154], [-109.869450000566, 47.0350979999261], [-109.86944139201, 47.0349648023677], [-109.869435885338, 47.0348796201644], [-109.869431488983, 47.034811572264], [-109.869413999682, 47.0345409998171], [-109.869424171306, 47.0344186843105], [-109.869454000764, 47.0340599997672], [-109.869561785123, 47.033575943856], [-109.869564000368, 47.0335660000682], [-109.869723000377, 47.0331250000035], [-109.869765703591, 47.033039775066], [-109.869812545343, 47.0329462861623], [-109.869868804134, 47.0328340046042], [-109.86996099913, 47.0326499997322], [-109.870152643916, 47.0323585860059], [-109.870227999992, 47.0322439998152], [-109.870487491837, 47.0319296734592], [-109.870563999553, 47.0318370000105], [-109.871010000515, 47.0313999998277], [-109.871154953568, 47.0312850466536], [-109.871215545832, 47.0312369934434], [-109.871527000724, 47.0309899994685], [-109.871677619451, 47.0308916716788], [-109.871904403636, 47.0307436203213], [-109.872056999555, 47.030644000741], [-109.872203747442, 47.0305694564591], [-109.87222048575, 47.0305609534631], [-109.872295457347, 47.0305228696742], [-109.87284643723, 47.0302429874644], [-109.872934999439, 47.0301980003428], [-109.873151728781, 47.0301179930732], [-109.873333958325, 47.0300507234637], [-109.873446628621, 47.0300091289642], [-109.873476666487, 47.0299980425621], [-109.873539914172, 47.0299746922871], [-109.873565018491, 47.0299654262632], [-109.873591928423, 47.0299554909873], [-109.873939999545, 47.0298270002597], [-109.874592522292, 47.0296472148545], [-109.874680797939, 47.0296228933026], [-109.87475300003, 47.029602999966], [-109.876641795949, 47.02913728289], [-109.87710720681, 47.0290225269069], [-109.877984177224, 47.0288062935677], [-109.87915042133, 47.0285187366921], [-109.879759764757, 47.0283684915303], [-109.880357789412, 47.0282210363147], [-109.880461461283, 47.0281954753772], [-109.880507999405, 47.0281840003835], [-109.880666598765, 47.0281333272963], [-109.880791067534, 47.0280935572627], [-109.881273250839, 47.0279394973185], [-109.881399999533, 47.0278990003053], [-109.881473266127, 47.0278680984722], [-109.881680846128, 47.0277805450182], [-109.881796523086, 47.0277317550796], [-109.881946179717, 47.0276686340752], [-109.882198999774, 47.0275619999875], [-109.882603707878, 47.0273513709529], [-109.882652366023, 47.0273260471854], [-109.882701493089, 47.0273004790835], [-109.882736999899, 47.0272819999913], [-109.883210998654, 47.02699200024], [-109.883356118793, 47.0268892378585], [-109.883604999738, 47.0267130002719], [-109.884034217475, 47.0263567396594], [-109.884045169735, 47.0263476499759], [-109.884053753138, 47.0263405247014], [-109.884058000372, 47.0263370000294], [-109.884082809146, 47.0263129586491], [-109.884381000413, 47.0260240001412], [-109.884468863732, 47.0259230276388], [-109.88449386744, 47.0258942966764], [-109.884523134552, 47.0258606625886], [-109.884726096314, 47.0256274260238], [-109.884742999913, 47.0256079996502], [-109.8847699871, 47.0255705295824], [-109.884828204219, 47.0254896978794], [-109.884858342697, 47.0254478499836], [-109.885003000204, 47.0252469999574], [-109.885228000334, 47.024866999835], [-109.885240004522, 47.0248400025209], [-109.885240351271, 47.0248392333909], [-109.885485999179, 47.0242869994608], [-109.885540686817, 47.0241108978028], [-109.885594999857, 47.0239360007179], [-109.885638125279, 47.0237385002187], [-109.885664000353, 47.0236200007933], [-109.885669999302, 47.023560000511], [-109.885719999531, 47.0230599996189], [-109.88571786693, 47.0230095341653], [-109.885712000033, 47.0228707606579], [-109.885695488998, 47.0224801914997], [-109.885693262973, 47.0224275331334], [-109.885691001015, 47.0223740002181], [-109.885389022451, 47.019907670881], [-109.885250237231, 47.0187741761435], [-109.885029784372, 47.0169736999664], [-109.884569345687, 47.0132131845426], [-109.884368173369, 47.0115701516933], [-109.884323256706, 47.0112033134687], [-109.884059726036, 47.0090509782338], [-109.884018130445, 47.0087112623381], [-109.884007060506, 47.0086208609584], [-109.883994683518, 47.0085197630463], [-109.883963000836, 47.0082609990782], [-109.883925745905, 47.0080424819507], [-109.883909739723, 47.0079485792805], [-109.883880999922, 47.0077799998795], [-109.883831094017, 47.0076004991852], [-109.883757000074, 47.0073340001883], [-109.883653405457, 47.0070756433469], [-109.883593000042, 47.0069250003105], [-109.883450405965, 47.0066626511895], [-109.883362000063, 47.0064999999068], [-109.883220678899, 47.0063006713008], [-109.883076890064, 47.0060978612737], [-109.883005980648, 47.0059978471424], [-109.882999000739, 47.0059879999055], [-109.882954549403, 47.0059398608276], [-109.882862813447, 47.0058405110525], [-109.88251700069, 47.0054660000303], [-109.882490059316, 47.0054434139476], [-109.8821909877, 47.0051926771586], [-109.882111882954, 47.0051263568982], [-109.88192299959, 47.0049680001126], [-109.881877928417, 47.0049383530737], [-109.881294028872, 47.0045542810471], [-109.88128599973, 47.0045489998452], [-109.881114362222, 47.0044594392574], [-109.880616499722, 47.0041996540162], [-109.880575000251, 47.0041780003903], [-109.879994891596, 47.0039447389414], [-109.87971699956, 47.0038330004098], [-109.879245891584, 47.0036955070325], [-109.878914917199, 47.0035989122711], [-109.878808999539, 47.0035679994356], [-109.878558186318, 47.0035200290948]]}}, {"type": "Feature", "properties": {"OBJECTID": 1093, "FRAARCID": 301407, "RROWNER1": "BNSF", "TRKRGHTS1": null}, "geometry": {"type": "LineString", "coordinates": [[-109.267649905878, 46.371082340361], [-109.259296644527, 46.3673640667288], [-109.252402718814, 46.3642953842477], [-109.243862667173, 46.3604939642357], [-109.241587000098, 46.3594809995335], [-109.24158224262, 46.3594784595751], [-109.240922125515, 46.3591260198215], [-109.240790889737, 46.3590559525512], [-109.24054000016, 46.3589220006225], [-109.240407530096, 46.3588360843589], [-109.240245739022, 46.3587311505623], [-109.239881332935, 46.3584948048263], [-109.239807480639, 46.3584469067854], [-109.239470900767, 46.358228609626], [-109.239453000038, 46.3582170006887], [-109.238540054791, 46.3575025208739], [-109.237996039547, 46.3570767696999], [-109.237827202986, 46.3569446375335], [-109.23740277237, 46.3566124748946], [-109.237124148207, 46.3563944196429], [-109.237029321147, 46.3563202073265], [-109.23654124669, 46.3559382354064], [-109.235717831138, 46.3552938234003], [-109.235277078134, 46.3549488878824], [-109.235036999781, 46.3547609993696], [-109.234908511051, 46.3546677685029], [-109.234325987725, 46.354245093458], [-109.234298497481, 46.3542251475693], [-109.234279000446, 46.3542109994382], [-109.234189377327, 46.3541563748083], [-109.233757030757, 46.3538928555565], [-109.233650835517, 46.3538281273868], [-109.233585000685, 46.35378799969], [-109.233128933202, 46.3535521254917], [-109.232858000414, 46.3534119995075], [-109.232682890019, 46.3533364879079], [-109.232028982967, 46.3530544990143], [-109.231999999723, 46.3530419998566], [-109.231766392833, 46.3529592278188], [-109.231189999611, 46.3527549995853], [-109.231139225034, 46.352741205112], [-109.230071850407, 46.3524512146905], [-109.22996799977, 46.3524229999709], [-109.228960507738, 46.3522398882262], [-109.228620000431, 46.3521779997354], [-109.22669247275, 46.3519128774372], [-109.225108909092, 46.3516950650915], [-109.223224034319, 46.3514358104355], [-109.213007176589, 46.3500305285025], [-109.212020748253, 46.3498948492722], [-109.202639383925, 46.348604486159], [-109.201680181729, 46.3484725523961], [-109.197671763286, 46.3479212136606], [-109.194902745948, 46.3475403469468], [-109.189486480605, 46.3467953649923], [-109.183134727691, 46.3459217096158], [-109.180425000061, 46.3455489995894], [-109.178891999876, 46.3453179999151], [-109.178819108777, 46.345304992973], [-109.176065952094, 46.3448136550992], [-109.175784170353, 46.3447633681369], [-109.175772224556, 46.3447612361552], [-109.173848582088, 46.3444179364087], [-109.168595871212, 46.3434805214959], [-109.161938690203, 46.3422924621508], [-109.158237858507, 46.3416320007968], [-109.154814912558, 46.3410211316707], [-109.154553645643, 46.3409745039182], [-109.153270577431, 46.3407455240275], [-109.148049335437, 46.3398137263627], [-109.146324439836, 46.339505896654], [-109.140562221599, 46.3384775540641], [-109.132933769529, 46.337116156214], [-109.124237468521, 46.3355641892099], [-109.100606963375, 46.3313470189791], [-109.100181000234, 46.3312709999057], [-109.099079000044, 46.3310620000979], [-109.098975798889, 46.3310382738371], [-109.09802200006, 46.3308190000503], [-109.097772588211, 46.3307485671197], [-109.097691243965, 46.3307255949858], [-109.097442133052, 46.3306552462933], [-109.09705808081, 46.3305467910031], [-109.09698800054, 46.3305270002217], [-109.096136630314, 46.330240001452], [-109.096015000222, 46.3301990004415], [-109.095376069882, 46.3299396829147], [-109.094649999368, 46.3296449999617], [-109.094404066694, 46.3295218491101], [-109.093528334158, 46.3290833250962], [-109.093316000272, 46.3289770005269], [-109.092807296903, 46.3286683344319], [-109.092741109033, 46.3286281733777], [-109.092662161493, 46.3285802702529], [-109.092163999854, 46.3282779991726], [-109.092018793476, 46.3281716476051], [-109.091908670802, 46.3280909922508], [-109.09140551453, 46.3277224712477], [-109.091265320752, 46.3276197902571], [-109.091256359159, 46.3276132260613], [-109.091235681737, 46.3275980816361], [-109.091018116962, 46.327438734288], [-109.09099800009, 46.3274240004659], [-109.090975001422, 46.3274037222241], [-109.090785938394, 46.3272370216405], [-109.090693754178, 46.3271557402434], [-109.090560772973, 46.327038487408], [-109.090161000214, 46.3266860003698], [-109.090018237254, 46.3265316303696], [-109.089628712475, 46.3261104380957], [-109.089545999197, 46.3260210000985], [-109.08936900234, 46.3257898472005], [-109.089278000307, 46.3256710002674], [-109.089046622137, 46.3253225056308], [-109.089035000632, 46.3253049995447], [-109.08891096036, 46.3250831804474], [-109.088885189491, 46.3250370974162], [-109.088853609217, 46.324980622294], [-109.088812999078, 46.324908000082], [-109.088808361076, 46.3248979802229], [-109.088781715248, 46.3248404044586], [-109.088668321808, 46.3245954052938], [-109.088619998734, 46.3244910000566], [-109.08849654057, 46.3241211551531], [-109.088387999829, 46.3237960003951], [-109.088347977188, 46.3236104353823], [-109.088310999836, 46.3234390004043], [-109.088258500494, 46.3230616003624], [-109.088258000132, 46.3230580003623], [-109.088250376131, 46.3227509268631], [-109.088242401786, 46.3224296921817], [-109.088240317694, 46.322345749049], [-109.088239999691, 46.3223330003024], [-109.088267620191, 46.3220208002517], [-109.088273000201, 46.3219599998196], [-109.088279718701, 46.3219189882599], [-109.088330596584, 46.3216084652296], [-109.088331000826, 46.3216059998186], [-109.088370807871, 46.321455504069], [-109.088449335, 46.3211586189325], [-109.088486000636, 46.3210199999774], [-109.08856232869, 46.3208271719012], [-109.088662212366, 46.32057483408], [-109.088694999077, 46.3204919998543], [-109.088998900036, 46.3199250599347], [-109.089133991383, 46.3196730436667], [-109.08931242285, 46.3193401706173], [-109.089332773284, 46.319302206416], [-109.089339292359, 46.3192900438695], [-109.089511214633, 46.3189693168411], [-109.089616557371, 46.3187727937768], [-109.089647000378, 46.3187160007381], [-109.089728719221, 46.3185362889101], [-109.089759164024, 46.318469332513], [-109.089777432164, 46.3184291608689], [-109.089883000379, 46.3181969993459], [-109.089947632367, 46.3179958463693], [-109.089949554762, 46.3179898573947], [-109.090069999079, 46.3176149995143], [-109.090071112091, 46.3176084843729], [-109.090083988543, 46.3175329996311], [-109.09015875712, 46.3170946717334], [-109.090179000655, 46.3169760001079], [-109.090189467825, 46.3167854763639], [-109.09019899895, 46.3166120004618], [-109.090198728557, 46.3166007524694], [-109.090190069696, 46.3162409253091], [-109.090189999628, 46.3162380005261], [-109.090183011633, 46.3161728970734], [-109.090154903348, 46.3159110511099], [-109.090151999993, 46.3158839994897], [-109.090130445816, 46.3157730610275], [-109.090105154647, 46.3156428845813], [-109.090092925881, 46.3155799414604], [-109.090083999322, 46.3155340005743], [-109.089980000464, 46.315164000191], [-109.089972071933, 46.3151429920886], [-109.089843000196, 46.314800999225], [-109.089760891484, 46.3146242310523], [-109.089698766694, 46.3144904854351], [-109.089686000736, 46.3144630000272], [-109.089602317277, 46.3143151222397], [-109.089466999554, 46.3140760001958], [-109.08943211348, 46.3140254423618], [-109.089335231973, 46.3138850462948], [-109.089161999057, 46.3136339999329], [-109.088936344953, 46.3133712253742], [-109.088844723981, 46.3132645308641], [-109.088790735232, 46.3132016613269], [-109.088700000897, 46.3130960002089], [-109.088234000741, 46.3126520002685], [-109.088225554781, 46.3126453114203], [-109.088208542486, 46.3126318394076], [-109.088128496306, 46.3125684454518], [-109.088117065244, 46.3125593912938], [-109.087990494417, 46.3124591513894], [-109.087922707546, 46.3124054660353], [-109.087685999672, 46.3122180002945], [-109.087382795806, 46.3120221069839], [-109.087098681139, 46.3118385471935], [-109.086233410383, 46.3112795152701], [-109.084718599285, 46.3103008303368], [-109.084691842066, 46.3102835422086], [-109.084536346386, 46.3101830815762], [-109.084025194209, 46.3098528382632], [-109.083580743739, 46.3095656882132], [-109.083520695854, 46.3095268931769], [-109.083385526353, 46.3094395632903], [-109.083354024233, 46.3094192101248], [-109.083086693689, 46.3092464933543], [-109.081873999497, 46.3084630005722], [-109.081466353902, 46.3082121775538], [-109.080154586314, 46.3074050513594], [-109.080148000764, 46.3074010004332], [-109.078989001571, 46.3067440005066], [-109.07890858259, 46.3067017134734], [-109.077886001556, 46.3061639993244], [-109.075920162525, 46.3051796173001], [-109.074988447878, 46.304713067785], [-109.072089301487, 46.3032613357006], [-109.068361494281, 46.3013946580236], [-109.066470387894, 46.3004476971124], [-109.065063258748, 46.2997430850485], [-109.065046934563, 46.2997349113095]]}}, {"type": "Feature", "properties": {"OBJECTID": 1095, "FRAARCID": 301409, "RROWNER1": "BNSF", "TRKRGHTS1": null}, "geometry": {"type": "LineString", "coordinates": [[-110.018851953283, 47.0779488299088], [-110.015220464339, 47.077181619158], [-110.010083875985, 47.0760964305606], [-109.999876148732, 47.0739398835195], [-109.998611045927, 47.0736726083165], [-109.995921007571, 47.0731042947916], [-109.992365128927, 47.0723530568088], [-109.988552079685, 47.0715474882794], [-109.982865000132, 47.0703459992476], [-109.978689405214, 47.0694599308071], [-109.971777210462, 47.0679931493474], [-109.966765814919, 47.0669297218362], [-109.965022461634, 47.0665597787254], [-109.961403256254, 47.065791777424], [-109.957967312582, 47.0650626631405], [-109.95545157973, 47.0645288184491], [-109.946223506617, 47.0625706031656], [-109.937779642983, 47.0607788002781], [-109.925159819716, 47.0581008488136], [-109.925014528897, 47.0580700177122], [-109.919266413311, 47.0568502572543]]}}, {"type": "Feature", "properties": {"OBJECTID": 1101, "FRAARCID": 301415, "RROWNER1": "BNSF", "TRKRGHTS1": null}, "geometry": {"type": "LineString", "coordinates": [[-109.802163121632, 46.926283333607], [-109.799411175878, 46.9230657451538], [-109.797107099582, 46.9203718105308], [-109.791983960804, 46.9143818108786], [-109.791842999865, 46.9142169998741], [-109.791493963953, 46.9137732834442], [-109.79140800057, 46.9136640000023], [-109.791153000302, 46.9132660003548], [-109.791027140042, 46.9130103123399], [-109.790930999646, 46.9128150000204], [-109.790815464622, 46.9124745099021], [-109.790760999766, 46.9123140002716], [-109.7907554365, 46.9122832500463], [-109.790696171047, 46.9119556378545], [-109.79065300071, 46.9117170003016], [-109.790646490619, 46.9115627281271], [-109.790630412572, 46.9111817648493], [-109.790623850379, 46.9110262527499], [-109.790619999301, 46.9109350000867], [-109.790620301135, 46.9107449491943], [-109.790622449905, 46.9093869839081], [-109.790622608907, 46.9092861180856], [-109.790623395831, 46.9087893315021], [-109.790630849153, 46.9040807624038], [-109.790634577162, 46.9017259710617], [-109.790635999195, 46.9008259998147], [-109.790650777379, 46.9006326931469], [-109.790676338043, 46.9002982960883], [-109.790680927535, 46.9002382758039], [-109.790685000497, 46.900184999812], [-109.790761442636, 46.8997535941704], [-109.790795013576, 46.8995641456674], [-109.790799999226, 46.899535999849], [-109.790991256838, 46.8988695549692], [-109.790993999395, 46.8988600010435], [-109.791251000211, 46.8982099998678], [-109.791275183757, 46.8981619779699], [-109.79133551551, 46.8980421774644], [-109.791420036198, 46.8978743428731], [-109.791530999695, 46.8976540008233], [-109.791787357318, 46.897238369813], [-109.791934999926, 46.8969990007316], [-109.792394000409, 46.8963859993384], [-109.792595044268, 46.8961605096556], [-109.792678164483, 46.8960672802867], [-109.792814712898, 46.8959141293699], [-109.792945000055, 46.8957679991608], [-109.793362740916, 46.8953617171757], [-109.793929868017, 46.8948101464102], [-109.794824279223, 46.8939402667527], [-109.797945565509, 46.8909045931741], [-109.800306290465, 46.8886086186356], [-109.801547618457, 46.8874013374103], [-109.803024809008, 46.8859646635482], [-109.803044000616, 46.8859460005125], [-109.803280626743, 46.8857026136238], [-109.803851881602, 46.8851150369748], [-109.803953999389, 46.8850099990138], [-109.804112243914, 46.8848107160533], [-109.804241397398, 46.8846480710843], [-109.804436000336, 46.8844029990883], [-109.80460502195, 46.8841324023451], [-109.804623222716, 46.8841032642215], [-109.804680345687, 46.8840118140763], [-109.804857000285, 46.883729000199], [-109.804921829005, 46.8835938620827], [-109.804933788276, 46.8835689337506], [-109.804982008942, 46.8834684147582], [-109.805140999968, 46.8831369996369], [-109.805167463438, 46.8830621869531], [-109.805181927212, 46.8830212958742], [-109.805252125162, 46.882822836871], [-109.80535499933, 46.8825319997908], [-109.805366526511, 46.8824878547445], [-109.805436009402, 46.8822217366724], [-109.805454998889, 46.882148999873], [-109.805466932109, 46.8820800937235], [-109.80549696728, 46.8819066530692], [-109.805515218352, 46.8818012606861], [-109.805525999932, 46.881739000073], [-109.805566001013, 46.8813459996599], [-109.805570579726, 46.8811786120063], [-109.80557066327, 46.8811755929156], [-109.805576999986, 46.8809439998445], [-109.805562432007, 46.8804644108756], [-109.805345202303, 46.8733131392462], [-109.805120786975, 46.8659252251679], [-109.805098999236, 46.8652079994091], [-109.80509800031, 46.8646610002297], [-109.805100079011, 46.864630833188], [-109.805119999153, 46.8643419999194], [-109.805176999054, 46.8639680003609], [-109.805190750465, 46.8639140262229], [-109.805257000319, 46.8636539999118], [-109.805297710171, 46.8635420493558], [-109.805336998888, 46.8634340000522], [-109.805392999863, 46.8632799998597], [-109.805457523155, 46.8631483972681], [-109.805594179367, 46.8628696746881], [-109.805595000427, 46.8628679997096], [-109.805787421358, 46.8625569638272], [-109.805813999812, 46.8625140000845], [-109.806107000613, 46.8621220001047], [-109.806291765203, 46.8619198975774], [-109.806479999984, 46.8617139995554], [-109.806808999872, 46.8614160009223], [-109.806855471518, 46.8613799359941], [-109.807202000232, 46.8611110007529], [-109.807347024252, 46.8610159844464], [-109.80766599984, 46.8608070006824], [-109.808020796648, 46.8606205435796], [-109.808469000279, 46.8603849994004], [-109.808890491607, 46.8602161943963], [-109.809278000566, 46.8600610000808], [-109.810035070145, 46.859826357016], [-109.810203999232, 46.859774000349], [-109.811269389481, 46.859481661173], [-109.812101570794, 46.8592533142151], [-109.812273999718, 46.8592060000816], [-109.813162491924, 46.8588996236879], [-109.813231000143, 46.8588759996409], [-109.814099998907, 46.8584639994792], [-109.814129557972, 46.8584452439513], [-109.814556528125, 46.8581743129768], [-109.814723608479, 46.8580682928781], [-109.814781330626, 46.8580316667104], [-109.814899000047, 46.8579569996215], [-109.815215168399, 46.8576934467513], [-109.815554000348, 46.8574109997133], [-109.81579619064, 46.8571456516776], [-109.81605599959, 46.8568609995323], [-109.816155267022, 46.8567122283709], [-109.816202387252, 46.8566416100854], [-109.816379347278, 46.8563764013782], [-109.816438999905, 46.8562870005689], [-109.816601999213, 46.8559670001803], [-109.816633101583, 46.8558906224663], [-109.816749000425, 46.8556060005263], [-109.816907589005, 46.8550449721996], [-109.816957741947, 46.8548675543433], [-109.817014999665, 46.8546650000179], [-109.817131351257, 46.8541896699437], [-109.817504070354, 46.8526669757477], [-109.818011000448, 46.8505960005055], [-109.818657336498, 46.8479382684696], [-109.818657371533, 46.8479381234734], [-109.820271634217, 46.8413002763951], [-109.820753535451, 46.8393187001062], [-109.82104401558, 46.8381242443979], [-109.821506725206, 46.8362215857095], [-109.821506739579, 46.8362215248715], [-109.821792064276, 46.8350482688788], [-109.82223356917, 46.83323280747], [-109.82223357995, 46.8332327607636], [-109.822786369938, 46.8309596935848], [-109.822799098168, 46.8309073493383]]}}, {"type": "Feature", "properties": {"OBJECTID": 1107, "FRAARCID": 301423, "RROWNER1": "BNSF", "TRKRGHTS1": null}, "geometry": {"type": "LineString", "coordinates": [[-109.826145839132, 46.8171455626745], [-109.826222715158, 46.816829444839], [-109.826330272243, 46.8163871733035], [-109.827093024564, 46.8132507361326], [-109.827162999732, 46.81296299998], [-109.82724099955, 46.8125460004131], [-109.827253338808, 46.8124325378984], [-109.82728699958, 46.8121230002337], [-109.82729433702, 46.8118704162087], [-109.827296017767, 46.8118125422701], [-109.827298585153, 46.8117241573442], [-109.827301000722, 46.8116409999693], [-109.827289673865, 46.8114195051754], [-109.827282999382, 46.8112890002104], [-109.827243329779, 46.8109652937302], [-109.82723300095, 46.810881000234], [-109.827217080109, 46.8108026242066], [-109.827158249441, 46.8105129997584], [-109.827151485126, 46.8104796980789], [-109.827142000714, 46.8104330000703], [-109.827015000492, 46.8099929999661], [-109.826856000483, 46.8095689996685], [-109.826763571027, 46.8093785601191], [-109.826557999659, 46.8089550001196], [-109.826328876261, 46.8085943608683], [-109.826123067738, 46.8082704211301], [-109.826111999595, 46.8082530001205], [-109.825908428776, 46.8080029655247], [-109.825905399657, 46.8079992456963], [-109.825891148783, 46.807981742824], [-109.825595000285, 46.8076180000375], [-109.825562174048, 46.8075844438613], [-109.825326407608, 46.8073434279288], [-109.825265800971, 46.8072814720095], [-109.825192317882, 46.8072063525522], [-109.825055999436, 46.8070670000058], [-109.822920333002, 46.8050788999432], [-109.821291599357, 46.8035627011257], [-109.819663101969, 46.8020467258339], [-109.819641272907, 46.8020264047098]]}}, {"type": "Feature", "properties": {"OBJECTID": 1109, "FRAARCID": 301426, "RROWNER1": "BNSF", "TRKRGHTS1": null}, "geometry": {"type": "LineString", "coordinates": [[-109.905718845951, 47.0539754365536], [-109.905676813779, 47.0539665174343], [-109.90379629314, 47.053567467792], [-109.896666917194, 47.0520546003538], [-109.896501612808, 47.0520195223946]]}}, {"type": "Feature", "properties": {"OBJECTID": 1110, "FRAARCID": 301427, "RROWNER1": "BNSF", "TRKRGHTS1": null}, "geometry": {"type": "LineString", "coordinates": [[-109.919266413311, 47.0568502572543], [-109.918942727857, 47.0567815702971], [-109.915545827661, 47.0560607417524], [-109.915404741856, 47.0560308023893], [-109.912653377312, 47.0554469581925], [-109.90896949952, 47.0546652319323], [-109.906070850795, 47.0540501335833], [-109.905718845951, 47.0539754365536]]}}, {"type": "Feature", "properties": {"OBJECTID": 1248, "FRAARCID": 301626, "RROWNER1": "BNSF", "TRKRGHTS1": null}, "geometry": {"type": "LineString", "coordinates": [[-109.755670441301, 46.9445298012617], [-109.755538005374, 46.9447210987157], [-109.75541345935, 46.9449009976587], [-109.754842388645, 46.9455148995227], [-109.754299871791, 46.9460003086234], [-109.753471820932, 46.9465142717421], [-109.751440000642, 46.9477199992434], [-109.750750000181, 46.9481299992417], [-109.746219223078, 46.9508258559223], [-109.735918535464, 46.956950587779], [-109.725325176731, 46.9623900363306], [-109.720114156667, 46.9650312379423], [-109.718964831431, 46.9656158819173], [-109.714360617952, 46.9679579745526], [-109.710477338421, 46.96992816896], [-109.704674657368, 46.972893636025], [-109.704155272132, 46.9731590692424]]}}, {"type": "Feature", "properties": {"OBJECTID": 1609, "FRAARCID": 302148, "RROWNER1": "BNSF", "TRKRGHTS1": null}, "geometry": {"type": "LineString", "coordinates": [[-109.822799098168, 46.8309073493383], [-109.823421291096, 46.82834889501], [-109.823622229852, 46.8275226321487], [-109.824547164913, 46.8237193106259], [-109.824624998543, 46.8233992514397], [-109.824625005729, 46.8233992262382], [-109.824775253452, 46.8227814094587]]}}, {"type": "Feature", "properties": {"OBJECTID": 1796, "FRAARCID": 302388, "RROWNER1": "BNSF", "TRKRGHTS1": null}, "geometry": {"type": "LineString", "coordinates": [[-110.488480090525, 47.261237106366], [-110.488002150861, 47.2611853155494], [-110.487954799764, 47.2611801841394], [-110.485915748935, 47.2609592263867], [-110.482698001554, 47.2606105427229], [-110.482380420151, 47.2605761276919], [-110.475341798304, 47.2598134025582], [-110.473351892507, 47.2595977718552], [-110.471828622873, 47.2594327049821], [-110.470390713852, 47.259276888732], [-110.464795356781, 47.2586705590311], [-110.454305006064, 47.2575337950557], [-110.447297108396, 47.2567743989503], [-110.44033434568, 47.2560198933949], [-110.429891028955, 47.2548882252634], [-110.422995310204, 47.2541409858062], [-110.416129000499, 47.2533969314418], [-110.414188251414, 47.253186627519], [-110.411913976727, 47.2529401796334], [-110.409305685062, 47.2526575378912], [-110.408017998611, 47.2525180002724], [-110.406141998295, 47.2522679993054], [-110.405942294722, 47.2522357812737], [-110.40482397394, 47.2520553646902], [-110.404455998847, 47.2519959996736], [-110.403652806168, 47.2518517938512], [-110.40261169289, 47.2516648716723], [-110.401012088016, 47.2513776785734], [-110.394712168793, 47.2502465905245], [-110.393718527884, 47.2500681922317], [-110.383408713387, 47.2482171650268], [-110.379885992458, 47.2475846956339], [-110.376141366993, 47.2469123839133], [-110.367491893364, 47.2453594555985], [-110.366171086028, 47.2451223163757], [-110.365358835637, 47.2449764849229], [-110.358857567127, 47.2438092461997], [-110.358082000338, 47.2436700005613], [-110.356554000176, 47.2434170006524], [-110.356047069183, 47.2433539271915], [-110.355260000366, 47.2432560004694], [-110.354155942135, 47.2431760027155], [-110.353175999636, 47.2431049996145], [-110.35305986364, 47.2431038536942], [-110.351655286607, 47.2430899995828], [-110.351047000498, 47.2430839998129], [-110.351039804992, 47.2430842431457], [-110.349049018847, 47.2431513840571], [-110.343580533538, 47.2433358145366], [-110.335454000677, 47.2436098912758], [-110.335013882781, 47.2436247356484], [-110.334890668959, 47.2436288893399], [-110.334609944534, 47.2436383578768], [-110.334146768682, 47.2436539785807], [-110.325001093538, 47.2439624276883], [-110.324568999395, 47.2439770005804], [-110.323862647799, 47.2439602413882], [-110.323726000569, 47.2439569994435], [-110.323153316491, 47.2438966605712], [-110.322892748464, 47.2438692064561], [-110.322777208949, 47.2438570314559], [-110.322681999207, 47.2438470000684], [-110.322494121955, 47.2438098499496], [-110.321981351015, 47.2437084589054], [-110.321887998989, 47.243689999977], [-110.321597243077, 47.2436162879989], [-110.32124899948, 47.2435279998573], [-110.320356499889, 47.2432806209088], [-110.314838008961, 47.2417510302211], [-110.313763280725, 47.2414531416501], [-110.309506335273, 47.2402732207186], [-110.302048325053, 47.2382060443642], [-110.301430656939, 47.2380348415487], [-110.294419017787, 47.2360913867198], [-110.286740249281, 47.2339630211893], [-110.283154358822, 47.2329691006332], [-110.282233999779, 47.2327140007139], [-110.27902285771, 47.23180523471], [-110.276499845809, 47.2310912138246], [-110.276067998703, 47.2309690000155], [-110.275826800151, 47.2308779464209], [-110.275032189078, 47.2305779770064], [-110.274769999593, 47.2304790000373], [-110.274562557932, 47.230375841313], [-110.27410503428, 47.2301483182516], [-110.273661999555, 47.2299280002401], [-110.273493308521, 47.2298264191475], [-110.273109000259, 47.2295950000213], [-110.272623999837, 47.2292630005762], [-110.272574614955, 47.2292251655532], [-110.272205000436, 47.2289419995341], [-110.272147325001, 47.2288918803093], [-110.271834761588, 47.2286202620799], [-110.271662999214, 47.2284710001757], [-110.271224359048, 47.2280172610974], [-110.271141243324, 47.2279312833812], [-110.271110999744, 47.2278999991461], [-110.271076946408, 47.2278560365992], [-110.27093032698, 47.2276667433363], [-110.270787113066, 47.2274818495892], [-110.270580107089, 47.2272145944562], [-110.270575000166, 47.2272080005403], [-110.270165999912, 47.2265299989769], [-110.270153576212, 47.2265023394275], [-110.269901810777, 47.2259418052399], [-110.269875653633, 47.2258835670114], [-110.269848000793, 47.2258220002567], [-110.269698136651, 47.2253431009485], [-110.269623000663, 47.2251029999541], [-110.269545414968, 47.2248087269956], [-110.268298906392, 47.2200808338628], [-110.266675938134, 47.2139250715247], [-110.266465000231, 47.2131249996533], [-110.266452291764, 47.2130897861332], [-110.266385928723, 47.2129059032995], [-110.266383293066, 47.2128986003772], [-110.266189999871, 47.2123630001685], [-110.266031580174, 47.2120315005714], [-110.265909535958, 47.2117761174285], [-110.265800999709, 47.2115490002677], [-110.265791111054, 47.2115326652957], [-110.265610564055, 47.2112344671145], [-110.265598459256, 47.2112144774173], [-110.265328410411, 47.2107684534314], [-110.265312999812, 47.2107429995692], [-110.265279350718, 47.2106975423776], [-110.265120294116, 47.2104826832094], [-110.265017436117, 47.210343740545], [-110.264780000608, 47.2100230002343], [-110.264454673931, 47.2096433263786], [-110.264354999562, 47.2095269995631], [-110.263895000153, 47.2090490002457], [-110.263532812007, 47.2087256030009], [-110.262979999561, 47.2082320001049], [-110.262589497415, 47.2079454002973], [-110.261852761203, 47.2074046964427], [-110.261844999759, 47.2073990002072], [-110.260977531723, 47.2068786580501], [-110.260608000748, 47.206656999585], [-110.260203567529, 47.206455165086], [-110.259545999843, 47.2061270003706], [-110.259415939959, 47.2060719791459], [-110.259098565169, 47.2059377161818], [-110.258513000148, 47.2056899994164], [-110.251421751397, 47.2031085810679], [-110.250226308452, 47.2026734051331], [-110.249451529485, 47.2023913631051], [-110.249275462385, 47.2023272691764], [-110.249250001434, 47.2023180001586], [-110.24869592955, 47.2021003623996], [-110.248638999718, 47.2020779999643], [-110.248088000072, 47.2018220000658], [-110.247398572736, 47.2014220061816], [-110.247321000516, 47.2013769999749], [-110.24731969167, 47.2013760631081], [-110.247076642589, 47.2012022871541], [-110.246913999912, 47.2010859991985], [-110.24659500007, 47.2008190004044], [-110.246415594829, 47.2006367650733], [-110.246166960023, 47.2003842054665], [-110.246087999906, 47.2003039989532], [-110.246030239132, 47.2002273579829], [-110.245956066137, 47.2001289371403], [-110.245914652904, 47.2000739884298], [-110.245847628703, 47.1999850540153], [-110.245570999697, 47.1996180000715], [-110.245422374332, 47.1993971761467], [-110.245303844325, 47.199221066403], [-110.244384017085, 47.1978544104102], [-110.243157404395, 47.1960319380923], [-110.242390368907, 47.1948922960191], [-110.236706526882, 47.186447383961], [-110.236579905749, 47.1862592536332], [-110.23633724474, 47.1858987135649], [-110.233667846974, 47.1819325879899]]}}, {"type": "Feature", "properties": {"OBJECTID": 1799, "FRAARCID": 302391, "RROWNER1": "BNSF", "TRKRGHTS1": null}, "geometry": {"type": "LineString", "coordinates": [[-109.896501612808, 47.0520195223946], [-109.893669690045, 47.0514185822995], [-109.890704525565, 47.0507893695779], [-109.890579831319, 47.0507629093059], [-109.890483127679, 47.0507423885238], [-109.889892664144, 47.0506170908209]]}}, {"type": "Feature", "properties": {"OBJECTID": 1800, "FRAARCID": 302392, "RROWNER1": "BNSF", "TRKRGHTS1": null}, "geometry": {"type": "LineString", "coordinates": [[-109.878558186318, 47.0035200290948], [-109.878443154351, 47.0034980290692], [-109.878015107118, 47.0034161635567], [-109.877893998946, 47.0033930001406], [-109.877452214676, 47.0033518516805], [-109.87668639371, 47.0032805234829], [-109.87659397683, 47.0032719156719], [-109.87635833885, 47.0032499676161], [-109.876304999583, 47.0032450005555], [-109.875506988387, 47.0031901913265], [-109.874658579907, 47.0031319226121], [-109.867863486841, 47.0026652315049], [-109.867793532335, 47.0026604273466]]}}, {"type": "Feature", "properties": {"OBJECTID": 1839, "FRAARCID": 302441, "RROWNER1": "BNSF", "TRKRGHTS1": null}, "geometry": {"type": "LineString", "coordinates": [[-109.768932667794, 46.6871795034967], [-109.768898000909, 46.6869929994931], [-109.768867737566, 46.6868864785715], [-109.768836497753, 46.6867765108546], [-109.768773000337, 46.6865529999726], [-109.768746776718, 46.6864863504699], [-109.768671097248, 46.6862939978285], [-109.768605000108, 46.6861259995211], [-109.768584060379, 46.6860871764249], [-109.768554751046, 46.6860328308222], [-109.768425667631, 46.6857934868104], [-109.768418043629, 46.685779350806], [-109.768268999649, 46.6855030006973], [-109.768235516743, 46.685456633674], [-109.767893211009, 46.6849826125264], [-109.76780900024, 46.6848660007997], [-109.767526725323, 46.6845673905114], [-109.767256000046, 46.6842809996348], [-109.766947955158, 46.6840227784957]]}}, {"type": "Feature", "properties": {"OBJECTID": 1865, "FRAARCID": 302475, "RROWNER1": "BNSF", "TRKRGHTS1": null}, "geometry": {"type": "LineString", "coordinates": [[-109.867793532335, 47.0026604273466], [-109.864538060203, 47.0024368386936], [-109.864536236623, 47.0024367137188], [-109.864104644638, 47.0024070726266], [-109.858401604717, 47.0020153833835], [-109.854701429688, 47.0017612536916], [-109.847737999525, 47.0012829999947], [-109.84665822096, 47.0011681651466], [-109.846430999295, 47.0011440003206], [-109.845287098985, 47.0009326060254], [-109.845180999866, 47.0009130003532], [-109.844250001176, 47.0006729990665], [-109.843948762824, 47.0005741002038], [-109.843321000341, 47.0003680005856], [-109.84296333072, 47.0002225534849], [-109.842521543755, 47.0000428981264], [-109.842489705665, 47.0000299516249], [-109.842413252746, 46.9999988621192], [-109.84238900003, 46.9999890002983], [-109.842368064792, 46.9999787175851], [-109.842113849652, 46.9998538692135], [-109.842001428189, 46.9997986576691], [-109.841781658049, 46.9996907242314], [-109.841601000558, 46.9996019997363], [-109.840843966013, 46.999158221273], [-109.840818001108, 46.9991429997529], [-109.840331893962, 46.9988043028085], [-109.840207472803, 46.9987176114994], [-109.840145942698, 46.9986747396883], [-109.840108999482, 46.9986490004107], [-109.839589288157, 46.9982214105772], [-109.83951099998, 46.9981570005471], [-109.839070197569, 46.9977296824804], [-109.838987999924, 46.9976500002854], [-109.838632000272, 46.9972509993541], [-109.838427779072, 46.9969906356097], [-109.838341000917, 46.9968799994589], [-109.837894434016, 46.9961868904006], [-109.837860999619, 46.9961350007695], [-109.837683999169, 46.9957939993953], [-109.837510956696, 46.9953952456162], [-109.837499999046, 46.9953700004354], [-109.837360000202, 46.9949740006748], [-109.837265220753, 46.9946208044541], [-109.837242999128, 46.994537999531], [-109.837166000034, 46.9941369993508], [-109.837122794662, 46.9937693306447], [-109.837114999082, 46.9937029992671], [-109.837099999911, 46.9933879993116], [-109.837110882103, 46.9930035011211], [-109.83711499998, 46.9928580002732], [-109.837166000034, 46.9924240002192], [-109.837177902711, 46.9923636150113], [-109.837237249012, 46.992062508408], [-109.83726099957, 46.9919419999733], [-109.837292468453, 46.9918308619497], [-109.837386999967, 46.9914969997998], [-109.837462569841, 46.9912863577844], [-109.837466442479, 46.9912755623633], [-109.83751399929, 46.9911429999542], [-109.837757035795, 46.9906307651514], [-109.837867000366, 46.9903989997399], [-109.83805828852, 46.9900780401827], [-109.838075000778, 46.9900500001262], [-109.838366999958, 46.98962699975], [-109.838574208954, 46.9893803378067], [-109.838992000122, 46.9888829998795], [-109.839309643508, 46.9885818099375], [-109.839687000606, 46.9882239994852], [-109.84008090557, 46.9879170597161], [-109.840368657515, 46.9876928376336], [-109.840380000542, 46.9876839993532], [-109.840391053413, 46.9876767727114], [-109.840738557698, 46.987449520583], [-109.841114000486, 46.9872040000351], [-109.841315083871, 46.9870903292717], [-109.841696000992, 46.9868749991273], [-109.84194734332, 46.9867447409679], [-109.842940121847, 46.9862302358454], [-109.843888000778, 46.9857389998027], [-109.84481299962, 46.9851669994869], [-109.845022933206, 46.9850069644693], [-109.8452799996, 46.9848110009699], [-109.845539170746, 46.9845803036051], [-109.845725999664, 46.984413999437], [-109.846056481772, 46.9840648633041], [-109.846098000108, 46.9840210004307], [-109.846243484064, 46.9838388245541], [-109.846438999691, 46.9835940007649], [-109.846544231038, 46.9834298887198], [-109.846734349587, 46.9831333844903], [-109.846800000264, 46.9830310004016], [-109.846835670568, 46.9829551994997], [-109.846847977487, 46.9829290481728], [-109.846879488591, 46.9828620855925], [-109.847088000145, 46.9824190003621], [-109.847128916609, 46.9822876453697], [-109.847166841684, 46.982165901445], [-109.847283000138, 46.981793000538], [-109.847303520354, 46.9816657311694], [-109.847381999872, 46.98117900003], [-109.847385513183, 46.9807995878539], [-109.847388000618, 46.9805310001068], [-109.847355899322, 46.9803019758083], [-109.847326988841, 46.9800956999426], [-109.847298999133, 46.9798960000972], [-109.847250479328, 46.9797298603187], [-109.847107999338, 46.9792419997776], [-109.84703345444, 46.9790803657685], [-109.847028907169, 46.9790705037645], [-109.84681713473, 46.9786113206897], [-109.84680737723, 46.9785901641712], [-109.84679900044, 46.9785719997988], [-109.846555809424, 46.9781948448185], [-109.846396000932, 46.9779469999295], [-109.846235412702, 46.9777500476781], [-109.845843999664, 46.9772700002259], [-109.845442833618, 46.9768018488327], [-109.844377819763, 46.9755590066225], [-109.841872028567, 46.9726348190421], [-109.840611412847, 46.9711637157815], [-109.835440583409, 46.9651295006368], [-109.829063193476, 46.9576872636072], [-109.827085493089, 46.9553793416095], [-109.822532648871, 46.9500662995415], [-109.822061969392, 46.9495170295871], [-109.8199234005, 46.9470213798483], [-109.807873690333, 46.9329597001203], [-109.807670000038, 46.9327219995612], [-109.804316082432, 46.9288005852143], [-109.802163121632, 46.926283333607]]}}, {"type": "Feature", "properties": {"OBJECTID": 1872, "FRAARCID": 302485, "RROWNER1": "BNSF", "TRKRGHTS1": null}, "geometry": {"type": "LineString", "coordinates": [[-109.824775253452, 46.8227814094587], [-109.824902992089, 46.8222561424242], [-109.824909786946, 46.8222282049967], [-109.825318648859, 46.8205469672033], [-109.826145839132, 46.8171455626745]]}}, {"type": "Feature", "properties": {"OBJECTID": 1873, "FRAARCID": 302486, "RROWNER1": "BNSF", "TRKRGHTS1": null}, "geometry": {"type": "LineString", "coordinates": [[-109.819641272907, 46.8020264047098], [-109.819541540148, 46.8019335627721], [-109.81536053288, 46.7980414430215], [-109.811863600787, 46.7947861318856], [-109.811009522141, 46.7939910661278], [-109.811009373919, 46.793990927751], [-109.809212424448, 46.7923181389543], [-109.808168680005, 46.791346513731], [-109.808168645869, 46.7913464811339], [-109.805290888364, 46.7886675622307], [-109.803470382372, 46.7869728437041], [-109.803470329372, 46.7869727938819], [-109.80153782682, 46.7851738190168], [-109.797335245613, 46.781261617193], [-109.797335182731, 46.7812615581383], [-109.7964630731, 46.7804497071933], [-109.794996000274, 46.7790840001305], [-109.79443758773, 46.7785800499919], [-109.794144999256, 46.778316000112], [-109.794102731725, 46.7782825640776], [-109.793927730026, 46.7781441332239], [-109.793762541524, 46.7780134632566], [-109.793621179936, 46.7779016418324], [-109.793495764342, 46.7778024340902], [-109.793075076108, 46.7774696562153], [-109.793030000444, 46.7774340000247], [-109.79288128884, 46.7773331629914], [-109.792137125357, 46.7768285671127], [-109.791772514454, 46.7765813351657], [-109.791743999232, 46.7765619998299], [-109.791674896329, 46.7765201909643], [-109.791302222149, 46.7762947151231], [-109.791178135164, 46.7762196403783], [-109.790095208902, 46.7755644472798], [-109.783109240008, 46.7713377873374], [-109.779310570997, 46.7690395125315], [-109.779237000772, 46.7689950003795], [-109.778549998887, 46.7684929998449], [-109.778510216994, 46.7684551884692], [-109.77838667888, 46.7683377694945], [-109.778004999987, 46.7679749997792], [-109.777852639427, 46.7677843797829], [-109.77756720244, 46.7674272622825], [-109.777558999923, 46.7674169995042], [-109.777549900888, 46.7674013096759], [-109.777301293929, 46.7669726043769], [-109.777206999571, 46.7668099993621], [-109.776985999638, 46.7662429995849], [-109.776973579531, 46.7661898213403], [-109.776958360273, 46.7661246663357], [-109.776895770156, 46.7658567046517], [-109.776864990281, 46.765724924348], [-109.77685800049, 46.7656950001898], [-109.776853927528, 46.7656440753642], [-109.776832133501, 46.7653716734952], [-109.776822258321, 46.7652482181197], [-109.776810160709, 46.765097012574], [-109.776805999713, 46.7650450004953], [-109.77672304389, 46.7618245300911], [-109.776587683946, 46.7565695447153], [-109.77658699943, 46.7565429997522], [-109.776515155766, 46.7559993193287], [-109.77651299981, 46.7559830002705], [-109.776370248528, 46.7554706097306], [-109.776362000197, 46.7554410005251], [-109.776334598886, 46.7553800668093], [-109.776262845054, 46.7552205108276], [-109.776245530925, 46.7551820094469], [-109.776217048043, 46.7551186733295], [-109.776133999693, 46.7549339992862], [-109.776016156897, 46.7547447923911], [-109.775875534623, 46.7545190105928], [-109.775816556631, 46.7544243154117], [-109.775811999478, 46.7544169994403], [-109.775484182671, 46.7540086156245], [-109.775458000374, 46.7539760003005], [-109.774898000507, 46.7533939993492], [-109.774150349764, 46.7526588485995], [-109.773562441038, 46.7520807682296], [-109.773074690873, 46.7516011715588], [-109.77281871234, 46.7513494734916], [-109.771665274617, 46.7502153191887], [-109.769765388995, 46.7483471975837], [-109.765957372115, 46.7446028426445], [-109.763996073169, 46.7426743337734], [-109.762034520897, 46.740745572461], [-109.758030000244, 46.7368079996659], [-109.757493875801, 46.7362789232608], [-109.756204000156, 46.7350059994199], [-109.756165470515, 46.7349648755701], [-109.755803000298, 46.7345779992967], [-109.755709518914, 46.7344595915807], [-109.755351383069, 46.7340059515185], [-109.755337999069, 46.7339889996411], [-109.755033764835, 46.7335045854707], [-109.75497148284, 46.7334054184839], [-109.754937376504, 46.7333511143469], [-109.754926001137, 46.7333330004365], [-109.754791544899, 46.7330696215219], [-109.754745529597, 46.7329794842767], [-109.754717297344, 46.7329241834996], [-109.754013981155, 46.7315464802853], [-109.753771276128, 46.7310710534863], [-109.753497001607, 46.7305337881994], [-109.753491516494, 46.7305230424326], [-109.752953209145, 46.729468572567], [-109.75272922411, 46.7290298193779], [-109.752567998975, 46.7287140003877], [-109.752464294763, 46.7285564781249], [-109.752429034092, 46.7285029203276], [-109.752413355795, 46.7284791059667], [-109.752397315477, 46.7284547411091], [-109.752350312029, 46.7283833471916], [-109.752348568399, 46.7283806994357], [-109.752335709015, 46.7283611651509], [-109.752119000334, 46.7280319993182], [-109.752042984895, 46.7279418579641], [-109.751986583272, 46.7278749750633], [-109.751748129073, 46.7275922042666], [-109.7515573835, 46.727366011316], [-109.751554000445, 46.7273619989664], [-109.751147000739, 46.7269580001474], [-109.750914396369, 46.7267540383575], [-109.750860167771, 46.7267064881319], [-109.750791009172, 46.7266458464468], [-109.750676001459, 46.7265449999373], [-109.746270082096, 46.722945599288], [-109.746204154737, 46.7228917390946], [-109.746122335283, 46.722824898582]]}}, {"type": "Feature", "properties": {"OBJECTID": 1894, "FRAARCID": 302512, "RROWNER1": "BNSF", "TRKRGHTS1": null}, "geometry": {"type": "LineString", "coordinates": [[-109.768932667794, 46.6871795034967], [-109.768976999654, 46.6874179996046], [-109.768983949021, 46.6874989480477], [-109.769014000362, 46.6878489995852], [-109.769012135459, 46.6879515797398], [-109.769005999966, 46.6882890008734], [-109.768987491078, 46.6884522131071], [-109.768961999585, 46.6886769996966], [-109.768938185247, 46.6887917718235], [-109.768878999744, 46.6890770000379], [-109.768841620845, 46.6891984127657], [-109.768742000375, 46.6895219998021], [-109.768728695428, 46.689554159921], [-109.768590999864, 46.6898869988658], [-109.76847448927, 46.6901088802917], [-109.76836099971, 46.6903249987998], [-109.768221098783, 46.6905476301769], [-109.768153000196, 46.6906559998361], [-109.767977508017, 46.6908905912342], [-109.767960499316, 46.6909133284574], [-109.767948873319, 46.6909288711002], [-109.767861999045, 46.6910450002072], [-109.767677654867, 46.6912543320506], [-109.767662300862, 46.6912717675024], [-109.767658543209, 46.6912760339373], [-109.767602054449, 46.691340180153], [-109.767572680438, 46.6913735339614], [-109.767529999682, 46.691422000157], [-109.76720900019, 46.6917380004609], [-109.767163460097, 46.6917772982634], [-109.767157928271, 46.6917820723866], [-109.766848224196, 46.6920493283336], [-109.766837969927, 46.6920581771764], [-109.766815000903, 46.6920780006494], [-109.766362000268, 46.6924149991935], [-109.766358099783, 46.6924175193191], [-109.765890000265, 46.6927200007035], [-109.765345145096, 46.6930208759111], [-109.765325000376, 46.6930320006921], [-109.765124393996, 46.6931197338819], [-109.764958078108, 46.6931924683942], [-109.764595081478, 46.6933512208546], [-109.764512302623, 46.6933874237614], [-109.76421615682, 46.6935169397143], [-109.764167999934, 46.6935379998909], [-109.764154068861, 46.6935429346747], [-109.76412440649, 46.6935534407289], [-109.763966264372, 46.6936094547041]]}}, {"type": "Feature", "properties": {"OBJECTID": 2003, "FRAARCID": 302648, "RROWNER1": "BNSF", "TRKRGHTS1": null}, "geometry": {"type": "LineString", "coordinates": [[-109.746122335283, 46.722824898582], [-109.744796638418, 46.7217418741662], [-109.744126001142, 46.7211940005003], [-109.744028088369, 46.721100229042], [-109.743724000561, 46.7208089992237], [-109.74356211157, 46.7206322665931], [-109.74337500148, 46.7204280000594], [-109.74304748471, 46.7200195675192], [-109.743035001721, 46.7200040006098], [-109.742880148336, 46.7197786663679], [-109.742734001422, 46.7195659993818], [-109.742589126523, 46.7193020562409], [-109.742442596029, 46.7190350953077], [-109.742341001062, 46.7188500001816], [-109.742171000284, 46.7184550001508], [-109.742117404099, 46.7183004940345], [-109.742026000519, 46.7180370004508], [-109.741550717174, 46.716392452316], [-109.741283321053, 46.7154672181807], [-109.741275924325, 46.715441624259], [-109.741247397425, 46.7153429180192], [-109.741241068794, 46.715321021324], [-109.740579363467, 46.7130314218897], [-109.740118352555, 46.7114362559742], [-109.739727030248, 46.7100822218792], [-109.739090000744, 46.7078780002396], [-109.739077308447, 46.7078301105976], [-109.738857906617, 46.7070023696383], [-109.738848000894, 46.7069649992964], [-109.738846355181, 46.7069543837392], [-109.738845164015, 46.7069467065089], [-109.73884356681, 46.7069364044931], [-109.738804990457, 46.70668767465], [-109.738781000947, 46.7065330005524], [-109.738769393815, 46.7062753342494], [-109.738761017025, 46.7060893643569], [-109.738761000856, 46.706089000294], [-109.738772838854, 46.7059036901263], [-109.738787000795, 46.7056819992617], [-109.738797248776, 46.7056193743952], [-109.738814952773, 46.7055111881517], [-109.73883411833, 46.7053940650963], [-109.738850001442, 46.7052970000395], [-109.738964000347, 46.7048690001212], [-109.739061408266, 46.7046123035128], [-109.739134001125, 46.7044210004581], [-109.739336001689, 46.7040169992625], [-109.739459611669, 46.7038170412355], [-109.739514540954, 46.7037281839057], [-109.739574001341, 46.7036319998704], [-109.739624629492, 46.7035638800095], [-109.739795047088, 46.7033345929663], [-109.73980564631, 46.7033203321837], [-109.7398490017, 46.7032620002516], [-109.740051687679, 46.7030300740151], [-109.740146437484, 46.7029216540288], [-109.740154001299, 46.702912999789], [-109.740160426948, 46.7029066877621], [-109.740270261263, 46.7027988219722], [-109.740304464617, 46.7027652306486], [-109.740361508536, 46.7027092089211], [-109.740431683129, 46.7026402907258], [-109.740489001035, 46.7025839996541], [-109.740614546884, 46.7024773037198], [-109.740842001212, 46.7022839995455], [-109.740850466037, 46.7022777619877], [-109.741245918798, 46.7019863757555], [-109.741279001055, 46.7019619995495], [-109.741289761974, 46.7019551656097], [-109.741556593054, 46.7017857054338], [-109.741775001347, 46.7016470004139], [-109.742255093375, 46.7013892664327], [-109.74234500126, 46.7013410007786], [-109.742857000548, 46.7011090003703], [-109.7429303965, 46.7010812304615], [-109.742942293787, 46.7010767294629], [-109.74319523332, 46.7009810304794], [-109.743790001582, 46.7007559993849], [-109.74437272074, 46.7005495974588], [-109.746024577919, 46.6999645012386], [-109.746117625416, 46.6999315433319]]}}, {"type": "Feature", "properties": {"OBJECTID": 2017, "FRAARCID": 302669, "RROWNER1": "BNSF", "TRKRGHTS1": null}, "geometry": {"type": "LineString", "coordinates": [[-109.802163121632, 46.926283333607], [-109.801586617917, 46.9258663552316], [-109.801568764799, 46.9258528735873], [-109.80106907782, 46.9255078515405], [-109.800438521576, 46.9251985211059], [-109.799819860823, 46.9249962671825], [-109.799177406393, 46.9248178093696], [-109.798344595361, 46.9246988353234], [-109.797399752735, 46.9246598723595], [-109.792574402779, 46.9244608888926], [-109.787030257764, 46.9242943278481], [-109.782517999431, 46.9241579998804], [-109.765321536472, 46.9235857857609], [-109.764407822267, 46.9236999994931], [-109.763636876412, 46.9238998747791], [-109.763022975832, 46.9241854100466], [-109.762494735902, 46.9245137757166], [-109.762089948747, 46.9248915772805], [-109.762066432649, 46.924913524992], [-109.761723790946, 46.9255274259701], [-109.759710767005, 46.9319519708567], [-109.759609117241, 46.9322784161298], [-109.756877344953, 46.9410513712859], [-109.756469940107, 46.9423597330472], [-109.755955978001, 46.943958730234], [-109.755735455972, 46.9443997741909], [-109.75572117725, 46.9444283337233], [-109.755670441301, 46.9445298012617]]}}, {"type": "Feature", "properties": {"OBJECTID": 12445, "FRAARCID": 315036, "RROWNER1": "BNSF", "TRKRGHTS1": null}, "geometry": {"type": "LineString", "coordinates": [[-109.701323773374, 46.9746061087366], [-109.700690000263, 46.9749299997041], [-109.700090000213, 46.9752399996407], [-109.69819430074, 46.9761659807661], [-109.698013900167, 46.9762540999904]]}}, {"type": "Feature", "properties": {"OBJECTID": 12446, "FRAARCID": 315037, "RROWNER1": "BNSF", "TRKRGHTS1": null}, "geometry": {"type": "LineString", "coordinates": [[-109.704155272132, 46.9731590692424], [-109.701323773374, 46.9746061087366]]}}, {"type": "Feature", "properties": {"OBJECTID": 12447, "FRAARCID": 315038, "RROWNER1": "BNSF", "TRKRGHTS1": null}, "geometry": {"type": "LineString", "coordinates": [[-109.698013900167, 46.9762540999904], [-109.69791999927, 46.9762999998442], [-109.696819999628, 46.9768300000344], [-109.695469999741, 46.9774999991637], [-109.692969897576, 46.9787429078075]]}}, {"type": "Feature", "properties": {"OBJECTID": 19318, "FRAARCID": 322313, "RROWNER1": "BNSF", "TRKRGHTS1": null}, "geometry": {"type": "LineString", "coordinates": [[-109.766947955158, 46.6840227784957], [-109.766613000338, 46.6837419995372], [-109.766400249635, 46.6835940164697], [-109.766220432068, 46.6834689397468]]}}, {"type": "Feature", "properties": {"OBJECTID": 19490, "FRAARCID": 322493, "RROWNER1": "BNSF", "TRKRGHTS1": null}, "geometry": {"type": "LineString", "coordinates": [[-109.889892664144, 47.0506170908209], [-109.888256999997, 47.0502699994919], [-109.887440952426, 47.050054213982], [-109.886559000853, 47.0498209999039], [-109.88622792406, 47.0497165780634], [-109.884793000141, 47.0492639998556], [-109.884759578321, 47.0492516871637], [-109.884691280308, 47.049226524973], [-109.884460892981, 47.0491416452609], [-109.883349000543, 47.0487320003434], [-109.882834072747, 47.0485142609311], [-109.882464992726, 47.0483581941165], [-109.881800000464, 47.048077000071], [-109.881192947741, 47.0477826712964]]}}, {"type": "Feature", "properties": {"OBJECTID": 19493, "FRAARCID": 322496, "RROWNER1": "BNSF", "TRKRGHTS1": null}, "geometry": {"type": "LineString", "coordinates": [[-110.218198040315, 47.1577550006726], [-110.217933545752, 47.1571414027058]]}}, {"type": "Feature", "properties": {"OBJECTID": 19494, "FRAARCID": 322497, "RROWNER1": "BNSF", "TRKRGHTS1": null}, "geometry": {"type": "LineString", "coordinates": [[-110.226721833347, 47.1716123732098], [-110.226698560693, 47.1715777935002], [-110.221251979904, 47.1634853984082], [-110.220912884749, 47.162981577161], [-110.220621324845, 47.162548383986]]}}, {"type": "Feature", "properties": {"OBJECTID": 19495, "FRAARCID": 322498, "RROWNER1": "BNSF", "TRKRGHTS1": null}, "geometry": {"type": "LineString", "coordinates": [[-110.233667846974, 47.1819325879899], [-110.2336380265, 47.1818882814405], [-110.23329611333, 47.1813802759128], [-110.232879358818, 47.1807610716044], [-110.226721833347, 47.1716123732098]]}}, {"type": "Feature", "properties": {"OBJECTID": 19496, "FRAARCID": 322499, "RROWNER1": "BNSF", "TRKRGHTS1": null}, "geometry": {"type": "LineString", "coordinates": [[-110.220621324845, 47.162548383986], [-110.220490000134, 47.1623532689298], [-110.220360640038, 47.1621610684465], [-110.220332998877, 47.1621200002894], [-110.220262326617, 47.16200615842], [-110.220201622063, 47.1619083788796], [-110.21992348838, 47.1614603639378], [-110.219866416613, 47.1613684323831], [-110.219813999916, 47.1612840000447], [-110.219740957002, 47.1611460292047], [-110.219432740537, 47.1605638432375], [-110.219399999639, 47.1605020003125], [-110.218936000032, 47.1594670001972], [-110.218253781676, 47.1578843168205], [-110.218198040315, 47.1577550006726]]}}, {"type": "Feature", "properties": {"OBJECTID": 261441, "FRAARCID": 531713, "RROWNER1": "BNSF", "TRKRGHTS1": null}, "geometry": {"type": "LineString", "coordinates": [[-109.402740943331, 46.4235952408258], [-109.407214523801, 46.4261076057071], [-109.409947893293, 46.4276426682902], [-109.410573553719, 46.427994040474], [-109.410966999644, 46.4282150004561], [-109.411811000091, 46.4286620005021], [-109.41191158086, 46.4287104864661], [-109.411960742062, 46.4287341845628], [-109.412046893193, 46.428775715338], [-109.412269587348, 46.4288830673691], [-109.412304800409, 46.428900043089], [-109.412371928816, 46.4289324032531], [-109.41270299932, 46.429092000176], [-109.412988281797, 46.429209975202], [-109.414318278897, 46.4297599801838], [-109.414460998738, 46.4298189995115], [-109.414584805449, 46.4298626265436], [-109.414727137217, 46.4299127813036], [-109.415406000366, 46.4301519991535], [-109.415461642014, 46.4301692722908], [-109.41561415439, 46.4302166139584], [-109.415872822479, 46.4302969080865], [-109.416290054895, 46.4304264233234], [-109.416395000578, 46.4304589999029], [-109.427018131276, 46.4335292806644], [-109.432736531491, 46.4351820028536], [-109.432867999932, 46.4352199998699], [-109.441221685288, 46.4376283084513], [-109.4449828155, 46.4387126151775], [-109.447933674309, 46.4395633271816], [-109.450159723837, 46.4402050807863], [-109.452591140816, 46.4409060409103], [-109.454475672433, 46.4414493377194], [-109.455405663212, 46.4417174473105], [-109.456592759911, 46.4420596793318], [-109.461019096184, 46.4433357602242], [-109.463811026849, 46.4441406539004], [-109.466812202992, 46.4450058718601], [-109.466961289193, 46.4450488535141], [-109.468390975934, 46.4454610217074], [-109.468441519644, 46.445475591862], [-109.469374190996, 46.4457444739288], [-109.47514087386, 46.4474069684891], [-109.477504521036, 46.448088391038], [-109.478115575753, 46.4482645543211], [-109.484078920494, 46.4499837437913], [-109.485189725072, 46.4503039805434], [-109.485997999521, 46.4505369995066], [-109.487061571579, 46.4508445643697], [-109.487731315031, 46.451038239636]]}}, {"type": "Feature", "properties": {"OBJECTID": 261443, "FRAARCID": 531715, "RROWNER1": "BNSF", "TRKRGHTS1": null}, "geometry": {"type": "LineString", "coordinates": [[-109.487731315031, 46.451038239636], [-109.487735388891, 46.4510394186711], [-109.48777459676, 46.4510507565927], [-109.489539477273, 46.4515611252512], [-109.490046450486, 46.4517027125123], [-109.490580999284, 46.4518520004631], [-109.495989478031, 46.453411807688], [-109.49995734742, 46.4545561438377], [-109.501584983324, 46.455025555598], [-109.501999274655, 46.4551450365071], [-109.50209116063, 46.4551715364872], [-109.502091291784, 46.4551715742383], [-109.505213824034, 46.4560721153611], [-109.506239438679, 46.4563679030906], [-109.506469039082, 46.4564341193487], [-109.506498899082, 46.4564427313303], [-109.508781366404, 46.4571009968295], [-109.51179871851, 46.4579712015932], [-109.512105404246, 46.4580596506927]]}}, {"type": "Feature", "properties": {"OBJECTID": 261578, "FRAARCID": 531863, "RROWNER1": "BNSF", "TRKRGHTS1": null}, "geometry": {"type": "LineString", "coordinates": [[-109.763966264372, 46.6936094547041], [-109.762994561221, 46.693953637861], [-109.761499190565, 46.6944833068458], [-109.757426416815, 46.6959259069312], [-109.75541150731, 46.6966395979265], [-109.754425525438, 46.6969888379468], [-109.752236353548, 46.6977642543573], [-109.746117625416, 46.6999315433319]]}}, {"type": "Feature", "properties": {"OBJECTID": 263498, "FRAARCID": 533953, "RROWNER1": "BNSF", "TRKRGHTS1": null}, "geometry": {"type": "LineString", "coordinates": [[-109.402740943331, 46.4235952408258], [-109.402401272356, 46.4234044836454], [-109.401371878498, 46.4228263730339], [-109.399385757304, 46.4217109661099], [-109.390755483368, 46.4168641984838], [-109.387667469781, 46.4151299665916], [-109.382055000702, 46.4119780008128], [-109.381730623545, 46.4118063443644], [-109.381679519286, 46.4117793017865], [-109.381405251054, 46.4116341658716], [-109.381359542077, 46.4116099753794], [-109.380947402211, 46.4113918776982], [-109.38061788669, 46.4112175034747], [-109.380304429453, 46.4110516283129], [-109.38025599948, 46.4110259993838], [-109.379915916178, 46.4108695826949], [-109.379301990445, 46.4105872156829], [-109.378067217459, 46.4100192955082], [-109.377996999747, 46.4099870009207], [-109.377246193222, 46.4096576736984], [-109.375240847182, 46.4087780695713], [-109.374055874101, 46.4082583058102], [-109.372197883209, 46.4074433357798], [-109.370451901453, 46.4066774971358], [-109.366223215204, 46.4048226695304], [-109.364786015852, 46.4041922725338], [-109.363177456572, 46.4034867096851], [-109.362306607278, 46.4031047312207], [-109.360198708667, 46.4021801444832], [-109.354252931379, 46.3995721500318], [-109.352566187228, 46.3988322939934], [-109.347709726817, 46.3967021071502], [-109.345884933167, 46.3959016990543], [-109.345627999724, 46.3957890004751], [-109.344762973309, 46.3954540035562], [-109.344120000552, 46.3952050006968], [-109.343664552008, 46.3950586261859], [-109.342585999643, 46.3947119994393], [-109.342329150642, 46.3946395107414], [-109.332778827582, 46.3919441559684], [-109.326762440018, 46.390246172421], [-109.320826894542, 46.3885710039527], [-109.319607999279, 46.3882269997874], [-109.317847155795, 46.3877515572917], [-109.317333998579, 46.3876129999517], [-109.316676375197, 46.387471748074], [-109.316062999233, 46.3873399992427], [-109.315695340347, 46.387277534588], [-109.314981883076, 46.3871563185763], [-109.314774000343, 46.3871210002337], [-109.314468826472, 46.3870784134625], [-109.313466876146, 46.3869385921989], [-109.312182082271, 46.3867593003745], [-109.310927279549, 46.3865841949236], [-109.305347825353, 46.3858055891628], [-109.303029000517, 46.3854819990223], [-109.301553000234, 46.3852500007014], [-109.301448243197, 46.3852285993884], [-109.300246000004, 46.3849829995573], [-109.299757501543, 46.3848599163491], [-109.298908488496, 46.3846459967408], [-109.298845000063, 46.384630000575], [-109.297863332799, 46.3843319557149], [-109.297487999605, 46.3842180007105], [-109.2965698603, 46.3838903899796], [-109.296381000291, 46.3838229998837], [-109.295719131471, 46.3835533915725], [-109.295660243311, 46.3835294048976], [-109.295635009635, 46.383519125599], [-109.295237000268, 46.383356999587], [-109.294348276296, 46.3829639011732], [-109.293407999807, 46.3825480001559], [-109.293231374852, 46.3824693789148], [-109.286459784409, 46.3794551523093], [-109.284322722891, 46.3785038841741], [-109.283343436162, 46.3780679754319], [-109.281464778629, 46.3772317313287], [-109.270296026498, 46.3722602028132], [-109.267649905878, 46.371082340361]]}}, {"type": "Feature", "properties": {"OBJECTID": 303041, "FRAARCID": 536896, "RROWNER1": "BNSF", "TRKRGHTS1": null}, "geometry": {"type": "LineString", "coordinates": [[-109.692969897576, 46.9787429078075], [-109.691970000799, 46.9792399999255], [-109.684800000341, 46.982899999912], [-109.671107425131, 46.9898952121316], [-109.668709999504, 46.9911200003366], [-109.665880000034, 46.9925499995108], [-109.660194568889, 46.9954407491622], [-109.657252854031, 46.9969186439591], [-109.657210724841, 46.9969398097669], [-109.657173862473, 46.9969586798378], [-109.651214483794, 47.0000093157577], [-109.646631641236, 47.0023078731128], [-109.645480001041, 47.0029200007563], [-109.642280000777, 47.0044999999956], [-109.639845868191, 47.0057310093543], [-109.636169999777, 47.0075899998648], [-109.633009999696, 47.0091799992038], [-109.62985999966, 47.0108200000793], [-109.621150000242, 47.0151700002542], [-109.619165209453, 47.0161761791341]]}}]}