{"type": "FeatureCollection", "features": [{"type": "Feature", "properties": {"OBJECTID": 1583, "FRAARCID": 302122, "RROWNER1": "BNSF", "TRKRGHTS1": null}, "geometry": {"type": "LineString", "coordinates": [[-111.539137904952, 45.8905699560121], [-111.536058621194, 45.8923670224992], [-111.533390680495, 45.8939240297387], [-111.532260404035, 45.8945836578023], [-111.52590100017, 45.8982949996522], [-111.525598408955, 45.8984670457013], [-111.525516914691, 45.8985133830127], [-111.525364184025, 45.8986002216057]]}}, {"type": "Feature", "properties": {"OBJECTID": 1584, "FRAARCID": 302123, "RROWNER1": "BNSF", "TRKRGHTS1": null}, "geometry": {"type": "LineString", "coordinates": [[-111.525364184025, 45.8986002216057], [-111.524619130311, 45.8990238442034], [-111.523895999982, 45.8994349998461], [-111.52381422185, 45.8994708199922], [-111.523785391319, 45.899483448123], [-111.523628372096, 45.8995522263741], [-111.523521589358, 45.8995989978868], [-111.52329099991, 45.8997000001138], [-111.522898735269, 45.8998257075075], [-111.522634041281, 45.8999105310648], [-111.522514000308, 45.8999490002886], [-111.522430207255, 45.8999679110631], [-111.522175230343, 45.9000254541659], [-111.521510274013, 45.900175524687], [-111.521454999776, 45.9001880001217], [-111.520611890457, 45.9002777624041], [-111.520186999904, 45.9003230004489], [-111.519479897317, 45.9003192158181], [-111.519065999448, 45.9003169996773], [-111.518968211541, 45.9003062134152], [-111.518480482037, 45.9002524164799], [-111.518402340286, 45.9002437975877], [-111.518298636973, 45.9002323586585], [-111.517969000179, 45.9001959995019], [-111.517597857626, 45.9001325220499], [-111.499986511347, 45.8971203972737], [-111.497267376559, 45.8966553346699], [-111.494422444393, 45.8961687565609], [-111.493508067232, 45.8960123676286], [-111.487017917171, 45.8949023370956], [-111.484266357692, 45.8944317296689], [-111.475387116573, 45.89291308384], [-111.4640786315, 45.8909789577366], [-111.459814356694, 45.8902496255602], [-111.457043985596, 45.8897757992382], [-111.456325999918, 45.8896529997131], [-111.45611106541, 45.8896063017329], [-111.45603606866, 45.8895900066703]]}}, {"type": "Feature", "properties": {"OBJECTID": 1641, "FRAARCID": 302189, "RROWNER1": "BNSF", "TRKRGHTS1": null}, "geometry": {"type": "LineString", "coordinates": [[-111.45603606866, 45.8895900066703], [-111.455927566547, 45.8895664335005], [-111.455271999409, 45.8894240007207], [-111.454375999083, 45.8891569999417], [-111.44490999998, 45.8860270005963], [-111.444051000363, 45.8858140001904], [-111.442883081797, 45.8855628086983], [-111.442379003854, 45.8854543933122], [-111.43916899995, 45.8847640004857], [-111.438378000105, 45.8846339999278], [-111.437816999515, 45.8846169999188], [-111.43709000104, 45.8846789999629], [-111.436516984585, 45.8847904071441], [-111.434752949387, 45.8851333723987], [-111.43465199941, 45.8851529992031], [-111.434315422233, 45.8851988655055], [-111.433143763981, 45.8853585252653], [-111.432770289402, 45.885409417667], [-111.432326522549, 45.8854584372103], [-111.431487888638, 45.8855605475714], [-111.429942303056, 45.8857487329202], [-111.42881443947, 45.8859152944967], [-111.428305234841, 45.886019990911]]}}, {"type": "Feature", "properties": {"OBJECTID": 1642, "FRAARCID": 302190, "RROWNER1": "BNSF", "TRKRGHTS1": null}, "geometry": {"type": "LineString", "coordinates": [[-111.622631996003, 45.8418184934921], [-111.622546621017, 45.8418684213529], [-111.622385675257, 45.8419625427145], [-111.621409530835, 45.8425333978365], [-111.612132388147, 45.8479587329266], [-111.605543009281, 45.8518122459353], [-111.602433000445, 45.8536310004625], [-111.598376064892, 45.8559986241727], [-111.597164733444, 45.856705555236], [-111.59208071989, 45.859672579773], [-111.591081354018, 45.8602558088747], [-111.588161555358, 45.8619598017351], [-111.585460937543, 45.8635358781506], [-111.576213300021, 45.8689327911674], [-111.56317635573, 45.8765411392867], [-111.559901505141, 45.8784523396934], [-111.55528849446, 45.8811444874106], [-111.553524595806, 45.8821738977249]]}}, {"type": "Feature", "properties": {"OBJECTID": 1644, "FRAARCID": 302192, "RROWNER1": "BNSF", "TRKRGHTS1": null}, "geometry": {"type": "LineString", "coordinates": [[-111.411266638218, 45.8860941753471], [-111.410413845959, 45.8859388798463], [-111.404686999784, 45.8848959998848], [-111.403902192026, 45.8847803970154], [-111.403899989357, 45.8847800730994], [-111.403895943345, 45.884779477169], [-111.403594000713, 45.8847349999836], [-111.403492996838, 45.8847274842506], [-111.403279138511, 45.8847115692026], [-111.40274607912, 45.8846718994359], [-111.402733999474, 45.8846710002233], [-111.402728998553, 45.8846710002233], [-111.402710000083, 45.8846710002233], [-111.402653999109, 45.8846710002233], [-111.402150000217, 45.8846710002233], [-111.402089000117, 45.8846710002233], [-111.401437000189, 45.8847120000489], [-111.401260755222, 45.8847392834319], [-111.401250142525, 45.8847409261499], [-111.400830902375, 45.88480582504], [-111.40067954703, 45.8848292551559], [-111.400228999694, 45.884899000166], [-111.399942562882, 45.8849725564036], [-111.399752892593, 45.8850212655494], [-111.399498452874, 45.8850866055858], [-111.3993100007, 45.8851350007227], [-111.395111478082, 45.8863915248971], [-111.394738999734, 45.8865029999283], [-111.394504216051, 45.8865526488094], [-111.393882415686, 45.8866841380916], [-111.393675000975, 45.8867280002986], [-111.393315332604, 45.8867674403633], [-111.392666554932, 45.8868385873577], [-111.39252600093, 45.8868540003081], [-111.391783000765, 45.8868750002818], [-111.391541447378, 45.8868668895556], [-111.391098000327, 45.8868520006079], [-111.390414846824, 45.8867881352245], [-111.390391999972, 45.886785999207], [-111.389745622599, 45.8866842725309], [-111.389673999921, 45.8866730002645], [-111.388985001082, 45.8865179996478], [-111.388949449356, 45.886507623404], [-111.38890610744, 45.886494974814], [-111.388670534138, 45.8864262154076], [-111.388382000659, 45.8863420009325], [-111.388374804255, 45.886339377787], [-111.387767081389, 45.8861178875577], [-111.387735851458, 45.8861065057479], [-111.387718000137, 45.8861000006943], [-111.387327087461, 45.8859272878964], [-111.387167999418, 45.8858569995338], [-111.386847345777, 45.885688088492], [-111.382798000089, 45.8835549999388], [-111.378428366375, 45.8812264409571], [-111.376916211596, 45.8804206212864], [-111.376508788784, 45.8802035069508], [-111.374772908584, 45.8792784640611], [-111.373809699003, 45.878765173483], [-111.372877442673, 45.8782683791795], [-111.371019299067, 45.8772781825769], [-111.368706808252, 45.8760458667562], [-111.368548207994, 45.875961350729], [-111.366471775571, 45.8748548277875], [-111.364952028231, 45.8740449604204], [-111.361934880042, 45.8724371359295], [-111.358922398602, 45.870831796856], [-111.352863150619, 45.8676028522161], [-111.343770158972, 45.8627572356215], [-111.339317095124, 45.8603842180258], [-111.336196000179, 45.8587210000631], [-111.335081512508, 45.8581258931005], [-111.334585276857, 45.8578609159525], [-111.334324459099, 45.8577216470077], [-111.333463772445, 45.8572620622706], [-111.332595501316, 45.8567984258745], [-111.331483254942, 45.8562045170863], [-111.33095734614, 45.8559236950795], [-111.329803849128, 45.8553077583787], [-111.328128853145, 45.8544133533412], [-111.327532667342, 45.8540950055062], [-111.327084652357, 45.8538557754341], [-111.326988234381, 45.8538042922822], [-111.326977046762, 45.853798318394]]}}, {"type": "Feature", "properties": {"OBJECTID": 1732, "FRAARCID": 302317, "RROWNER1": "BNSF", "TRKRGHTS1": null}, "geometry": {"type": "LineString", "coordinates": [[-111.480484494364, 45.9448974806836], [-111.483613767571, 45.9429543821469], [-111.487116015895, 45.940779687209], [-111.488143472086, 45.9401416972189], [-111.489470000791, 45.939318000014], [-111.489510233638, 45.9392904111043], [-111.489912997787, 45.9390142301378], [-111.489960000337, 45.9389820001062], [-111.490238440346, 45.9387439788187], [-111.490269999959, 45.938716999968], [-111.49051604043, 45.9384357159625], [-111.490570775679, 45.9383731381049], [-111.490590191865, 45.9383509419085], [-111.490632999284, 45.9383019996704], [-111.490744776654, 45.938114519069], [-111.490774107547, 45.9380653198621], [-111.49078655101, 45.9380444498245], [-111.490883999354, 45.9378809995562], [-111.490954257491, 45.9376883579309], [-111.490998900167, 45.9375659517515], [-111.491023749364, 45.9374978178421], [-111.491038999165, 45.9374560004903], [-111.491085735814, 45.9371723917133], [-111.491089440466, 45.9371499076603], [-111.4910911284, 45.9371396639501], [-111.491112000756, 45.9370130008837], [-111.491120233816, 45.9368728663942], [-111.491136310964, 45.9365991954492], [-111.491147661178, 45.9364059796088], [-111.491184870295, 45.9357726367602], [-111.491205999569, 45.9354129998141], [-111.491204999744, 45.9349009996179], [-111.491192722469, 45.9348181144232], [-111.491164999561, 45.9346309993972], [-111.49110789276, 45.9344475423412], [-111.491085000992, 45.93437399916], [-111.490967999918, 45.9341310005847], [-111.490955321096, 45.9341125743963], [-111.490775999399, 45.9338519993341], [-111.490756761977, 45.9338316462682], [-111.490747759061, 45.9338221185542], [-111.490548609749, 45.9336114163338], [-111.490485163537, 45.9335442884454], [-111.490483000394, 45.9335419992832], [-111.490480439297, 45.9335398344505], [-111.490475298239, 45.9335354885408], [-111.490469502309, 45.9335305884584], [-111.490004000718, 45.9331369991556], [-111.489899326327, 45.9330533572187], [-111.48950762493, 45.9327403587562], [-111.489441792793, 45.932687755348], [-111.469718251261, 45.91692715992], [-111.461103392415, 45.9100432402014], [-111.461023000383, 45.9099790002128], [-111.460038999296, 45.9091519998201], [-111.460012521453, 45.909126559815], [-111.458767804117, 45.9079306532778], [-111.454983818967, 45.9042950520238], [-111.451546914996, 45.9009929229173], [-111.451476001988, 45.9009247909688], [-111.449158805797, 45.8986984611755], [-111.4489554892, 45.8985031171635], [-111.448920040781, 45.8984690593621], [-111.448486999813, 45.8980530002276], [-111.448104205213, 45.8976104148899], [-111.447897999634, 45.8973720003824], [-111.446986964206, 45.8962080642584], [-111.446429316129, 45.8954956161271], [-111.446042888741, 45.8950019192715], [-111.445768999598, 45.8946520000996], [-111.445209100342, 45.8938781762677], [-111.444562337592, 45.8929842998658], [-111.444284999816, 45.8926009999629], [-111.444257992866, 45.8925683690742], [-111.444099963037, 45.8923774270344], [-111.443556072659, 45.8917202718596], [-111.442492727874, 45.8904354809484], [-111.442084924176, 45.8899427507834], [-111.441667999883, 45.8894389996515], [-111.441616550672, 45.8893827986596], [-111.441567321197, 45.8893290217795], [-111.44128886951, 45.8890248499725], [-111.441235672178, 45.8889667377262], [-111.441170000839, 45.8888950000724], [-111.441071736825, 45.8888077698868], [-111.440974437601, 45.8887213968177], [-111.440715516187, 45.8884915492331], [-111.440697999937, 45.8884759998011], [-111.440694394998, 45.8884734161488], [-111.440575111305, 45.8883878998185], [-111.440321648952, 45.8882061900758], [-111.440208102799, 45.8881247870697], [-111.440153999964, 45.8880860001392], [-111.440062246041, 45.8880336257659], [-111.439797294236, 45.8878823906637], [-111.43955349596, 45.8877432300701], [-111.439468999526, 45.8876949997801], [-111.439416793933, 45.8876728777246], [-111.439289562844, 45.8876189660027], [-111.438771773915, 45.8873995637196], [-111.438487896403, 45.8872792782439], [-111.438465999968, 45.8872700001558], [-111.43843887983, 45.8872621789977], [-111.438369250514, 45.8872421002265], [-111.437822772089, 45.8870845143545], [-111.437520833051, 45.8869974439025], [-111.437326646931, 45.8869414474131], [-111.437227999336, 45.8869130001844], [-111.434872768476, 45.8863550272402], [-111.434591329891, 45.8862883524223], [-111.434355959608, 45.8862325915831], [-111.432817, 45.8858679993314], [-111.432611550803, 45.8858338693741], [-111.432592835302, 45.8858307597145], [-111.432551996093, 45.8858239757409], [-111.432196999859, 45.8857649997202], [-111.432052891222, 45.8857551323377], [-111.432040932849, 45.8857543144329], [-111.431902566244, 45.8857448397429], [-111.431568999322, 45.8857219996803], [-111.431543780917, 45.885722416762], [-111.431431991868, 45.8857242608007], [-111.431237308081, 45.8857274705159], [-111.431083999798, 45.8857299992685], [-111.430894065404, 45.8857485084341], [-111.430508085378, 45.8857861195397], [-111.430457999809, 45.8857910007025], [-111.429999736843, 45.8858541593833]]}}, {"type": "Feature", "properties": {"OBJECTID": 1808, "FRAARCID": 302401, "RROWNER1": "BNSF", "TRKRGHTS1": null}, "geometry": {"type": "LineString", "coordinates": [[-111.480068394724, 45.9451558525806], [-111.476099008978, 45.9476206122907], [-111.473579401693, 45.949185142629], [-111.472127000152, 45.9500870006295], [-111.471347000177, 45.9506059995404], [-111.471281241702, 45.950658862639], [-111.471062523489, 45.9508346880725]]}}, {"type": "Feature", "properties": {"OBJECTID": 2103, "FRAARCID": 302777, "RROWNER1": "BNSF", "TRKRGHTS1": null}, "geometry": {"type": "LineString", "coordinates": [[-111.470733511923, 45.951099178725], [-111.470679001254, 45.9511430000348], [-111.469942000038, 45.9518340002119], [-111.469779724772, 45.9519990550705], [-111.469065999804, 45.9527250003154], [-111.468272291538, 45.9536011344089], [-111.468209000735, 45.9536710003765], [-111.468132395102, 45.9537678496622], [-111.467736000907, 45.9542690004167], [-111.467126999738, 45.955148999661], [-111.466996248152, 45.9553513538187], [-111.466683584127, 45.9558352385117], [-111.466622999948, 45.9559289995154], [-111.466559260885, 45.9560450537762], [-111.466344000289, 45.9564369991249], [-111.466166203931, 45.956859997898], [-111.465998238736, 45.9572596101405], [-111.465768999455, 45.9578049987464], [-111.465583110175, 45.958162031815], [-111.4649370005, 45.9594029991269], [-111.46489072828, 45.9595253964348], [-111.464130999688, 45.9615349994298], [-111.464027027779, 45.9617623608613], [-111.463643285456, 45.9626015036533], [-111.462320999493, 45.9654929992869], [-111.462158852686, 45.9658709579012], [-111.462040000184, 45.9661479984927], [-111.461855118814, 45.9666758039811], [-111.461729999665, 45.9670329990502], [-111.4615230934, 45.9678114542236], [-111.461507000082, 45.9678719995709], [-111.461389520206, 45.9685091315662], [-111.461343999875, 45.9687559985608], [-111.46132727594, 45.9689149734498], [-111.461261000034, 45.9695449987823], [-111.461247245031, 45.9700110988691], [-111.461235000095, 45.970426000388], [-111.461240752906, 45.9705485575283], [-111.461274000453, 45.9712570009635], [-111.461313811092, 45.9715733419817], [-111.46132278077, 45.9716446156563], [-111.461350083266, 45.9718615478377], [-111.461384999883, 45.9721390004982], [-111.461562000333, 45.972994000719], [-111.461640685566, 45.9732758498119], [-111.461751000479, 45.9736710008913], [-111.461850266115, 45.9739522590576], [-111.462033000512, 45.9744700012212], [-111.462979999992, 45.9766650008231], [-111.463136838655, 45.9770874618525], [-111.463215000169, 45.9772980013311], [-111.463398999394, 45.9779390002549], [-111.463425854529, 45.9780485653244], [-111.463961678037, 45.9802346873948], [-111.46398699885, 45.9803380011129], [-111.464026565146, 45.9806457943475], [-111.464037105978, 45.9807278013824], [-111.464049484762, 45.9808241002374], [-111.464055000418, 45.9808670016336], [-111.464072999962, 45.9814000015484], [-111.464071559962, 45.9814310015237], [-111.464056000243, 45.9817660006534], [-111.463958416254, 45.9827936474325], [-111.463943000265, 45.9829560014742], [-111.464005586789, 45.9840335555036], [-111.464005790707, 45.9840370529088], [-111.464026000106, 45.9843850008704], [-111.464024419071, 45.9844503494021], [-111.464020000258, 45.9846330005485], [-111.463982000623, 45.9848949997566], [-111.463969281377, 45.9849359836012], [-111.463889530743, 45.9851929579008], [-111.463838000683, 45.9853590000955], [-111.462844807135, 45.9877988983632], [-111.462770809312, 45.9879806833651], [-111.462754775283, 45.9880200733241], [-111.462742999268, 45.988048999888], [-111.462630408023, 45.9884540132618], [-111.462598999328, 45.9885670003414], [-111.462586395066, 45.988634118396], [-111.462559707017, 45.9887762435024], [-111.462393621098, 45.9896606802567], [-111.46235299928, 45.989876999487], [-111.462293363722, 45.9900500316689], [-111.462211000787, 45.9902890003715], [-111.462135013195, 45.9904423911455], [-111.461997000527, 45.9907209995867], [-111.461928457274, 45.9908226685128], [-111.46166799974, 45.9912090003656], [-111.46135738657, 45.9915546127368], [-111.461241999768, 45.9916829997933], [-111.45930713285, 45.9934179552357], [-111.458532000846, 45.9941130002347], [-111.45802399996, 45.994542999994], [-111.458009916173, 45.9945534134548], [-111.457528999492, 45.9949090002018], [-111.457487652735, 45.9949365202352], [-111.455958999497, 45.9959539998454], [-111.455952038452, 45.9959580338199], [-111.455555961362, 45.9961875436443], [-111.455442999113, 45.9962529993111], [-111.455184900556, 45.9963569858311], [-111.454959000313, 45.9964479997745], [-111.454785138576, 45.9964908509951], [-111.454463998947, 45.9965699994493], [-111.454382864907, 45.9965782326844], [-111.45392200042, 45.9966249997826], [-111.453679372648, 45.9966145960724], [-111.453338999191, 45.9965999999216], [-111.453179958758, 45.9965702197428], [-111.452837000847, 45.9965060000933], [-111.452768762123, 45.9964838059609], [-111.452425001118, 45.9963720001684], [-111.452246439396, 45.9962875250441], [-111.452071999144, 45.9962049999941], [-111.451760789492, 45.9960090532125], [-111.451666999088, 45.9959500001943], [-111.451610462718, 45.9959064258837], [-111.451120018505, 45.9955284357251], [-111.450833896104, 45.9953079192111], [-111.450255372078, 45.9948620438052], [-111.448033442223, 45.9931495837453], [-111.446472599654, 45.9919466282712], [-111.445631000404, 45.9912980000015], [-111.445186001063, 45.9909820000922], [-111.445177783275, 45.9909770582787], [-111.444751999796, 45.9907210002109], [-111.444719167271, 45.9907061422445], [-111.444624069819, 45.9906631061718], [-111.444338392982, 45.9905338323586], [-111.44394099986, 45.9903539992856], [-111.443738413593, 45.9902948141584], [-111.443390323607, 45.990193122418], [-111.442986000881, 45.9900750001615], [-111.442976523655, 45.9900736052216], [-111.442205571512, 45.9899600763473], [-111.44194700044, 45.9899220003266], [-111.441529457208, 45.9899171901111], [-111.440949532708, 45.9899105131045], [-111.440904999627, 45.9899100006888], [-111.440064149571, 45.9900062542378], [-111.439681999961, 45.990049999838], [-111.433313315601, 45.9910315180627], [-111.43179546191, 45.9912654446253], [-111.430000999875, 45.9915420005695], [-111.429768933596, 45.9915865438258], [-111.428655798788, 45.9918002067866], [-111.428511000245, 45.9918279998556], [-111.427418114362, 45.9921023249114], [-111.426778000044, 45.9922630002593], [-111.426340165666, 45.9924020161038], [-111.421993872878, 45.9937819994896], [-111.420997312444, 45.9940984146576], [-111.420202436368, 45.9943507949636], [-111.419853390575, 45.9944616200341], [-111.417804999962, 45.9951119998328], [-111.4174498052, 45.9952398868652], [-111.417168503159, 45.9953411680527], [-111.416943999796, 45.9954220000305], [-111.416430930615, 45.9956807223503], [-111.416390819939, 45.99570094911], [-111.416122999814, 45.9958359990961], [-111.416055556099, 45.9958840043498], [-111.415980716554, 45.9959372704557], [-111.415635052918, 45.9961832981284], [-111.415501999848, 45.996278000577], [-111.415229612687, 45.996541599678], [-111.415036999517, 45.9967280002142], [-111.414958678103, 45.9968252896994], [-111.414813999935, 45.9970049994001], [-111.414702456126, 45.9971743192654], [-111.414619000839, 45.9973009996064], [-111.414518140694, 45.9975165613321], [-111.414363999673, 45.9978460008413], [-111.414348660041, 45.9979021868416], [-111.414333593497, 45.9979573624556], [-111.41429917275, 45.9980834238245], [-111.414203999839, 45.9984319998903], [-111.413890235378, 46.0000715269023], [-111.413396538366, 46.0026512512049], [-111.413370264441, 46.0027885430749], [-111.413291296239, 46.0032011785276], [-111.413242488075, 46.0034562172934], [-111.412987999846, 46.0047859994714], [-111.412893073074, 46.0054080991841], [-111.412828999838, 46.0058279997911], [-111.412825587138, 46.0058741145248], [-111.412796770082, 46.0062634623093], [-111.41278400053, 46.0064359996288], [-111.412775000309, 46.0070640007537], [-111.412801219438, 46.0074987197914], [-111.412839619721, 46.0081354176736], [-111.412849409561, 46.0082977585288], [-111.412935119619, 46.0097188656583], [-111.412980000349, 46.0104629999759], [-111.413130625364, 46.01272796299], [-111.413289020807, 46.015109787493], [-111.413705132124, 46.0213669009486], [-111.413757223631, 46.0221501849478], [-111.413817336195, 46.0230541278926], [-111.413857348954, 46.0236557769164]]}}, {"type": "Feature", "properties": {"OBJECTID": 19684, "FRAARCID": 322714, "RROWNER1": "BNSF", "TRKRGHTS1": null}, "geometry": {"type": "LineString", "coordinates": [[-111.411266638218, 45.8860941753471], [-111.411572864915, 45.8861151706057], [-111.416031973526, 45.8869051508377], [-111.417364472435, 45.8871478560263], [-111.417764221838, 45.8872144810397], [-111.418211560391, 45.8872668286725], [-111.418625587618, 45.8872763468734], [-111.418982505348, 45.8872715877732], [-111.419287077348, 45.8872573110953], [-111.419629719052, 45.887223997999], [-111.420986012536, 45.887038399491], [-111.421975867945, 45.8869003917057], [-111.426449253481, 45.8862864908939], [-111.42721673633, 45.8861706107815]]}}, {"type": "Feature", "properties": {"OBJECTID": 19685, "FRAARCID": 322715, "RROWNER1": "BNSF", "TRKRGHTS1": null}, "geometry": {"type": "LineString", "coordinates": [[-111.429999736843, 45.8858541593833], [-111.429517185229, 45.8859206677653], [-111.42888825763, 45.8860073509643], [-111.427063493624, 45.8862588530982], [-111.423195734286, 45.886791934534], [-111.41992687546, 45.8872424716503], [-111.419864999503, 45.8872510006425], [-111.419307453834, 45.8872943227748], [-111.418976999574, 45.8873199997654], [-111.418779873268, 45.8873148429832], [-111.418594725996, 45.8873100000972], [-111.418350165948, 45.8873036021094], [-111.4181359995, 45.8872980001178], [-111.417932673022, 45.8872703459425], [-111.417114000574, 45.8871590000111], [-111.417021430981, 45.8871421433419], [-111.416428759387, 45.8870342150166], [-111.414615622275, 45.8867040369784], [-111.412379067848, 45.8862967533738], [-111.411345300094, 45.8861084992219], [-111.411313131423, 45.8861026413597], [-111.411266638218, 45.8860941753471]]}}, {"type": "Feature", "properties": {"OBJECTID": 19686, "FRAARCID": 322716, "RROWNER1": "BNSF", "TRKRGHTS1": null}, "geometry": {"type": "LineString", "coordinates": [[-111.428305234841, 45.886019990911], [-111.429999736843, 45.8858541593833]]}}, {"type": "Feature", "properties": {"OBJECTID": 19687, "FRAARCID": 322717, "RROWNER1": "BNSF", "TRKRGHTS1": null}, "geometry": {"type": "LineString", "coordinates": [[-111.428305234841, 45.886019990911], [-111.42721673633, 45.8861706107815]]}}, {"type": "Feature", "properties": {"OBJECTID": 19688, "FRAARCID": 322718, "RROWNER1": "BNSF", "TRKRGHTS1": null}, "geometry": {"type": "LineString", "coordinates": [[-111.546090182532, 45.8865126139311], [-111.546023688336, 45.886551420094], [-111.542074583854, 45.8888561111347], [-111.539137904952, 45.8905699560121]]}}, {"type": "Feature", "properties": {"OBJECTID": 19689, "FRAARCID": 322719, "RROWNER1": "BNSF", "TRKRGHTS1": null}, "geometry": {"type": "LineString", "coordinates": [[-111.553524595806, 45.8821738977249], [-111.553501540544, 45.8821873527491], [-111.549623353562, 45.8844506583157], [-111.548061318929, 45.88536225964], [-111.547439000236, 45.8857254438868], [-111.546102435552, 45.886505462989], [-111.546090182532, 45.8865126139311]]}}, {"type": "Feature", "properties": {"OBJECTID": 19693, "FRAARCID": 322723, "RROWNER1": "BNSF", "TRKRGHTS1": null}, "geometry": {"type": "LineString", "coordinates": [[-111.480068394724, 45.9451558525806], [-111.480484494364, 45.9448974806836]]}}, {"type": "Feature", "properties": {"OBJECTID": 19695, "FRAARCID": 322725, "RROWNER1": "BNSF", "TRKRGHTS1": null}, "geometry": {"type": "LineString", "coordinates": [[-111.471062523489, 45.9508346880725], [-111.470844247248, 45.9510101600637], [-111.470733511923, 45.951099178725]]}}]}